Latitude,Longitude,BranchName,LogoUrl,BranchId,ManagerName,Phone,Hours/0/Day,Hours/0/Open,Hours/0/Close,Hours/1/Day,Hours/1/Open,Hours/1/Close,Hours/2/Day,Hours/2/Open,Hours/2/Close,Hours/3/Day,Hours/3/Open,Hours/3/Close,Hours/4/Day,Hours/4/Open,Hours/4/Close,Hours/5/Day,Hours/5/Open,Hours/5/Close,Hours/6/Day,Hours/6/Open,Hours/6/Close,City,NetworkId,NetworkName,Address,Logos/0,Departments/4,Logos/1,Departments/1,Departments/9,Logos/2,Logos/3,Departments/7,Logos/4,Logos/5,Logos/6,Logos/7,Logos/8,Departments/8,Departments/10,Departments/12,Departments/13,Departments/14,Departments/15,Departments/17,Departments/19
32.0814329,34.7706953,"שלי ת""א- בן יהודה",/umbracoContent/Images/Branches/NetworkLogos/1.png,1,אלברט חזן,03-5229121,א,7:00,23:00,ב,7:00,23:00,ג,7:00,23:00,ד,7:00,24:00,ה,7:00,24:00,ו,7:00,14:30,ש,18:45,23:00,תל אביב,1,שופרסל שלי,79 בן יהודה,,,,,,,,,,,,,,,,,,,,,
31.775431,35.217455,שלי ירושלים- אגרון,/umbracoContent/Images/Branches/NetworkLogos/1.png,2,אלי חננאל,02-6252947,א,8:00,22:00,ב,8:00,22:00,ג,8:00,22:00,ד,8:00,22:00,ה,8:00,23:00,ו,7:00,14:30,ש,18:45,22:00,ירושלים,1,שופרסל שלי,1 אגרון,,,,,,,,,,,,,,,,,,,,,
32.078204,34.815239,שלי גבעתיים- סירקין,/umbracoContent/Images/Branches/NetworkLogos/1.png,3,סיגלית גלוסקא,03-6723221,א,7:00,20:00,ב,7:00,20:00,ג,7:00,20:00,ד,7:00,21:00,ה,7:00,21:00,ו,7:00,14:30,,,,גבעתיים,1,שופרסל שלי,17 סירקין,,,,,,,,,,,,,,,,,,,,,
32.804296,34.987142,שלי חיפה- כרמל,/umbracoContent/Images/Branches/NetworkLogos/1.png,4,לילך חונן,04-8385238,א,7:00,21:00,ב,7:00,21:00,ג,7:00,21:00,ד,7:00,21:00,ה,7:00,21:00,ו,7:00,14:30,,,,חיפה,1,שופרסל שלי,שד' הנשיא 124 מר,,,,,,,,,,,,,,,,,,,,,
31.7605531,35.1782886,שלי ירושלים- יובל,/umbracoContent/Images/Branches/NetworkLogos/1.png,5,מחמד עביד,02-6413389,א,7:00,21:00,ב,7:00,21:00,ג,7:00,21:00,ד,7:00,22:00,ה,7:00,22:00,ו,7:00,14:30,,,,ירושלים,1,שופרסל שלי,3 אורוגאי,,,,,,,,,,,,,,,,,,,,,
32.086017,34.778785,"שלי ת""א- ארלוזורוב",/umbracoContent/Images/Branches/NetworkLogos/1.png,7,אסף קריבינסקי,03-5227757,א,7:00,22:00,ב,7:00,22:00,ג,7:00,22:00,ד,7:00,23:00,ה,7:00,23:00,ו,7:00,14:30,ש,18:45,22:00,תל אביב,1,שופרסל שלי,53 ארלוזרוב,,,,,,,,,,,,,,,,,,,,,
32.331400,34.858795,שלי נתניה- ויצמן,/umbracoContent/Images/Branches/NetworkLogos/1.png,9,ליאור וייס,09-8824911,א,7:00,20:30,ב,7:00,20:30,ג,7:00,20:30,ד,7:00,20:30,ה,7:00,21:00,ו,7:00,14:30,ש,18:45,22:00,נתניה,1,שופרסל שלי,27 שד' ויצמן,,,,,,,,,,,,,,,,,,,,,
32.0915591,34.7847613,"שלי ת""א- נורדאו",/umbracoContent/Images/Branches/NetworkLogos/1.png,11,גיא צוברי,03-6045565,א,7:00,22:00,ב,7:00,22:00,ג,7:00,22:00,ד,7:00,22:00,ה,7:00,22:00,ו,7:00,14:30,,,,תל אביב,1,שופרסל שלי,157 אבן גבירול,,,,,,,,,,,,,,,,,,,,,
32.820323,34.958610,יש בני ברק- ירושלים,/umbracoContent/Images/Branches/NetworkLogos/6.png,12,חיים יעקב אינדיג,03-6187175,א,7:30,22:00,ב,7:30,22:00,ג,7:30,22:00,ד,7:30,23:00,ה,7:30,23:00,ו,7:30,15:00,,,,בני ברק,6,יש,70  ירושלים,,,,,,,,,,,,,,,,,,,,,
31.755316,34.989846,דיל בית שמש- העליה,/umbracoContent/Images/Branches/NetworkLogos/2.png,13,עוז גוליאן,02-9915219,א,8:00,22:00,ב,8:00,22:00,ג,8:00,22:00,ד,8:00,22:00,ה,8:00,24:00,ו,7:00,14:30,ש,18:45,22:00,בית שמש,2,שופרסל דיל,1 העליה,,,,,,,,,,,,,,,,,,,,,
32.086639,34.987013,"יש פ""ת- רוטשילד",/umbracoContent/Images/Branches/NetworkLogos/6.png,15,מנחם מענדל מייזליש,03-9313581,א,7:00,22:00,ב,7:00,22:00,ג,7:00,22:00,ד,7:00,23:00,ה,7:00,23:00,ו,7:00,15:00,ש,21:00,23:00,פתח תקווה,6,יש,79 רוטשילד,,,,,,,,,,,,,,,,,,,,,
32.7844353,34.9895315,שלי חיפה- חורב,/umbracoContent/Images/Branches/NetworkLogos/1.png,17,ערן שפיצר,04-8246745,א,7:00,22:00,ב,7:00,22:00,ג,7:00,22:00,ד,7:00,22:00,ה,7:00,22:00,ו,7:00,14:30,ש,18:45,22:30,חיפה,1,שופרסל שלי,15 מרכז חורב,,,,,,,,,,,,,,,,,,,,,
32.008056,34.791036,דיל חולון-קרן היסוד,/umbracoContent/Images/Branches/NetworkLogos/2.png,18,לריסה דרוזנס,03-5500995,א,7:00,20:00,ב,7:00,20:00,ג,7:00,20:00,ד,7:00,21:00,ה,7:00,21:00,ו,7:00,14:30,,,,חולון,2,שופרסל דיל,קרן היסוד 1 ק.שר,,,,,,,,,,,,,,,,,,,,,
32.784128,35.012946,שלי חיפה- זיו,/umbracoContent/Images/Branches/NetworkLogos/1.png,19,אלי מרדו,04-8236877,א,7:00,21:00,ב,7:00,21:00,ג,7:00,21:00,ד,7:00,21:00,ה,7:00,21:00,ו,7:00,14:30,,,,חיפה,1,שופרסל שלי,67 כצנלסון,/umbracoContent/Images/Branches/DepartmentsLogos/4.png,גרין,,,,,,,,,,,,,,,,,,,
31.898980,34.810211,שלי רחובות- הרצל,/umbracoContent/Images/Branches/NetworkLogos/1.png,20,ילנה קארי,08-9463904,א,7:00,21:00,ב,7:00,21:00,ג,7:00,21:00,ד,7:00,21:00,ה,7:00,22:00,ו,7:00,14:30,,,,רחובות,1,שופרסל שלי,183 הרצל,,,,,,,,,,,,,,,,,,,,,
31.8012849,35.2281633,יש ירושלים מרים-פארן,/umbracoContent/Images/Branches/NetworkLogos/6.png,21,חיים יהושע פוקסמן,02-5814166,א,7:30,22:00,ב,7:30,22:00,ג,7:30,22:00,ד,7:30,23:00,ה,7:30,23:00,ו,7:00,15:00,ש,21:00,23:00,ירושלים,6,יש,פארן 7 רמת אשכול,,,,,,,,,,,,,,,,,,,,,
32.3272194,34.8550823,שלי נתניה- סמילנסקי,/umbracoContent/Images/Branches/NetworkLogos/1.png,22,סמאהר ורקאני,09-8820745,א,7:00,21:00,ב,7:00,21:00,ג,7:00,21:00,ד,7:00,21:00,ה,7:00,21:00,ו,7:00,14:30,,,,נתניה,1,שופרסל שלי,13 סמילנסקי,,,,,,,,,,,,,,,,,,,,,
31.327776,34.938759,שלי מיתר,/umbracoContent/Images/Branches/NetworkLogos/1.png,23,זוהרה מלכה,08-6510216/7,א,6:30,20:30,ב,6:30,20:30,ג,6:30,20:30,ד,6:30,21:00,ה,6:30,21:30,ו,6:30,14:30,,,,מיתר,1,שופרסל שלי,1 המיישבים,,,,,,,,,,,,,,,,,,,,,
31.7834068,34.6471994,שלי אשדוד- הנביאים,/umbracoContent/Images/Branches/NetworkLogos/1.png,24,ילנה קוגן,08-8649673,א,7:00,20:00,ב,7:00,20:00,ג,7:00,20:00,ד,7:00,20:30,ה,7:00,20:00,ו,7:00,14:30,,,,אשדוד,1,שופרסל שלי,3 אברהם סופר,,,,,,,,,,,,,,,,,,,,,
32.179312,34.878137,שלי רעננה- אחוזה,/umbracoContent/Images/Branches/NetworkLogos/1.png,27,סבטלנה בן-נעים,09-7425456,א,7:30,20:00,ב,7:30,20:00,ג,7:30,20:00,ד,7:30,20:30,ה,7:30,21:00,ו,7:00,14:30,,,,רעננה,1,שופרסל שלי,82 אחוזה,,,,,,,,,,,,,,,,,,,,,
32.121329,34.834387,"שלי ת""א- צה""ל",/umbracoContent/Images/Branches/NetworkLogos/1.png,28,גלית חנניה,03-6471063,א,7:00,20:30,ב,7:00,20:30,ג,7:00,20:30,ד,7:00,20:30,ה,7:00,21:00,ו,7:00,14:30,,,,תל אביב,1,שופרסל שלי,"צה""ל 71, מרכ",,,,,,,,,,,,,,,,,,,,,
32.467067,35.041473,אקספרס חריש האודם,/umbracoContent/Images/Branches/NetworkLogos/7.png,29,תבור חאוזי,04-8545099,א,6:30,21:00,ב,6:30,21:00,ג,6:30,21:00,ד,6:30,21:00,ה,6:30,21:00,ו,6:30,15:30,,,,חריש,7,שופרסל אקספרס,5 האודם,,,,,,,,,,,,,,,,,,,,,
32.054689,34.848691,שלי רמת גן- קריניצי,/umbracoContent/Images/Branches/NetworkLogos/1.png,30,אלון קלאי,03-5348236,א,7:00,20:00,ב,7:00,20:00,ג,7:00,20:00,ד,7:00,20:00,ה,7:00,20:00,ו,7:00,14:30,,,,רמת גן,1,שופרסל שלי,9 יוסף ספיר,,,,,,,,,,,,,,,,,,,,,
31.9739491,34.8061696,שלי רמת גן- קסם,/umbracoContent/Images/Branches/NetworkLogos/1.png,32,רונן גולדנברג,03-6772397,א,7:00,21:00,ב,7:00,21:00,ג,7:00,21:00,ד,7:00,21:00,ה,7:00,22:00,ו,7:00,14:30,,,,רמת גן,1,שופרסל שלי,90 הירדן,,,,,,,,,,,,,,,,,,,,,
32.81992,34.972951,שלי חיפה- סטלה,/umbracoContent/Images/Branches/NetworkLogos/1.png,33,אברהם קדרון,04-8339722,א,7:00,21:00,ב,7:00,21:00,ג,7:00,21:00,ד,7:00,21:00,ה,7:00,21:00,ו,7:00,14:30,,,,חיפה,1,שופרסל שלי,35/טשרניחובסקי,,,,,,,,,,,,,,,,,,,,,
32.143601,34.83703,שלי רמת השרון- סוקולוב,/umbracoContent/Images/Branches/NetworkLogos/1.png,34,סאמר חאג' יחיא,03-5490829,א,7:00,22:00,ב,7:00,22:00,ג,7:00,22:00,ד,7:00,22:00,ה,7:00,22:00,ו,7:00,14:30,,,,רמת השרון,1,שופרסל שלי,48 סוקולוב,,,,,,,,,,,,,,,,,,,,,
31.245611,34.797456,דיל באר-שבע וולפסון,/umbracoContent/Images/Branches/NetworkLogos/2.png,35,אבי אשכנזי,08-6282404,א,8:00,21:00,ב,8:00,21:00,ג,8:00,21:00,ד,8:00,22:00,ה,8:00,23:00,ו,8:00,14:30,ש,18:45,22:00,באר שבע,2,שופרסל דיל,13 רח' וולפסון,,,,,,,,,,,,,,,,,,,,,
32.175759,34.907778,"שלי כ""ס- רוטשילד",/umbracoContent/Images/Branches/NetworkLogos/1.png,36,אורי ברנס,09-7675323,א,7:00,21:00,ב,7:00,21:00,ג,7:00,21:00,ד,7:00,21:00,ה,7:00,21:00,ו,7:00,14:30,,,,כפר סבא,1,שופרסל שלי,65 רוטשילד,,,,,,,,,,,,,,,,,,,,,
31.250932,34.779518,"שלי ב""ש- יעלים",/umbracoContent/Images/Branches/NetworkLogos/1.png,37,רחל אליצור,08-6439646,א,7:00,21:00,ב,7:00,21:00,ג,7:00,21:00,ד,7:00,21:00,ה,7:00,21:00,ו,7:00,14:30,,,,באר שבע,1,שופרסל שלי,34 יעלים,,,,,,,,,,,,,,,,,,,,,
32.76859,35.003579,שלי חיפה- דניה,/umbracoContent/Images/Branches/NetworkLogos/1.png,38,יוליה קובבקו,04-8348677,א,7:00,20:30,ב,7:00,20:30,ג,7:00,20:30,ד,7:00,21:00,ה,7:00,21:00,ו,7:00,14:30,,,,חיפה,1,שופרסל שלי,ליבריה 2 דניה,,,,,,,,,,,,,,,,,,,,,
32.111553,34.7941933,"שלי ת""א- ברזיל",/umbracoContent/Images/Branches/NetworkLogos/1.png,39,מנחם גאזלה,03-6410585,א,7:00,22:30,ב,7:00,22:30,ג,7:00,22:30,ד,7:00,23:00,ה,7:00,23:00,ו,7:00,14:30,ש,18:45,23:00,תל אביב,1,שופרסל שלי,15 ברזיל,,,,,,,,,,,,,,,,,,,,,
31.264451,34.846852,"שלי ב""ש- עומר",/umbracoContent/Images/Branches/NetworkLogos/1.png,40,תמרה כיטיבשוילי,086460460,א,6:30,20:00,ב,6:30,20:00,ג,6:30,20:00,ד,6:30,20:00,ה,6:30,20:00,ו,6:30,14:30,,,,באר שבע,1,שופרסל שלי,"רותם 1,מ מסחרי ע",,,,,,,,,,,,,,,,,,,,,
31.767676,35.202277,שלי ירושלים- ניות,/umbracoContent/Images/Branches/NetworkLogos/1.png,42,אלדד אייגר,02-6792703,א,7:00,22:00,ב,7:00,22:00,ג,7:00,22:00,ד,7:00,22:00,ה,7:00,23:00,ו,7:00,14:30,,,,ירושלים,1,שופרסל שלי,1 יהודה בורלא,,,,,,,,,,,,,,,,,,,,,
32.155553,34.891516,שלי הוד השרון- הבנים,/umbracoContent/Images/Branches/NetworkLogos/1.png,43,אמונה מרטון,09-7401816,א,7:00,20:00,ב,7:00,20:00,ג,7:00,20:00,ד,7:00,21:00,ה,7:00,21:00,ו,7:00,14:30,,,,הוד השרון,1,שופרסל שלי,12 הבנים,,,,,,,,,,,,,,,,,,,,,
31.753643,35.214593,דיל ירושלים- תלפיות,/umbracoContent/Images/Branches/NetworkLogos/2.png,45,מיכאל שטרית,02-6783278,א,8:00,22:00,ב,8:00,22:00,ג,8:00,23:00,ד,8:00,24:00,ה,8:00,24:00,ו,7:00,14:30,ש,18:45,23:00,ירושלים,2,שופרסל דיל,35 פייר קניג,,,,,,,,,,,,,,,,,,,,,
31.2726540,34.8105380,"דיל ב""ש- הר בוקר",/umbracoContent/Images/Branches/NetworkLogos/2.png,49,מנחם לוי,08-6499004/5,א,7:00,21:00,ב,7:00,21:00,ג,7:00,21:00,ד,7:00,21:00,ה,7:00,21:00,ו,7:00,14:30,,,,באר שבע,2,שופרסל דיל,5  הר בוקר,,,,,,,,,,,,,,,,,,,,,
31.804702,35.155357,שלי מבשרת ציון,/umbracoContent/Images/Branches/NetworkLogos/1.png,50,איאד רשק,02-5341231,א,7:00,20:00,ב,7:00,20:00,ג,7:00,20:00,ד,7:00,21:00,ה,7:00,22:00,ו,7:00,14:30,,,,מבשרת ציון,1,שופרסל שלי,75 השלום,,,,,,,,,,,,,,,,,,,,,
32.4547996,35.0426615,אקספרס חריש הרימון,/umbracoContent/Images/Branches/NetworkLogos/7.png,56,אלדד קילברט,04-8876167,א,6:30,21:00,ב,6:30,21:00,ג,6:30,21:00,ד,6:30,21:00,ה,6:30,21:00,ו,6:30,15:30,,,,חריש,7,שופרסל אקספרס,47 אורן,,,,,,,,,,,,,,,,,,,,,
32.138053,34.840726,שלי רמת השרון- אוסישקין,/umbracoContent/Images/Branches/NetworkLogos/1.png,57,מנשה יצחק,03-5402424,א,7:00,22:00,ב,7:00,22:00,ג,7:00,22:00,ד,7:00,22:00,ה,7:00,22:30,ו,7:00,14:30,,,,רמת השרון,1,שופרסל שלי,5 אוסישקין,,,,,,,,,,,,,,,,,,,,,
32.3000905,34.9112341,אקספרס צור משה,/umbracoContent/Images/Branches/NetworkLogos/7.png,61,קובי מור,099784676,א,6:30,21:00,ב,6:30,21:00,ג,6:30,21:00,ד,6:30,21:00,ה,6:30,21:00,ו,6:30,15:30,,,,צור משה,7,שופרסל אקספרס,17 הערבה,,,,,,,,,,,,,,,,,,,,,
31.2540557,34.8149347,"דיל ב""ש- צ'ורלי",/umbracoContent/Images/Branches/NetworkLogos/2.png,65,גורגט בן זקן,08-6280531,א,7:30,22:00,ב,7:30,22:00,ג,7:30,22:00,ד,7:30,22:00,ה,7:30,23:00,ו,7:30,14:30,ש,18:45,22:00,באר שבע,2,שופרסל דיל,1 רח' האורגים,,,,,,,,,,,,,,,,,,,,,
32.077652,34.8444174,שלי גבעת שמואל-בן גוריון,/umbracoContent/Images/Branches/NetworkLogos/1.png,67,יוסף בכר,03-5323093,א,7:00,20:00,ב,7:00,20:00,ג,7:00,20:00,ד,7:00,20:30,ה,7:00,21:00,ו,7:00,14:30,,,,גבעת שמואל,1,שופרסל שלי,18 בן-גוריון,,,,,,,,,,,,,,,,,,,,,
32.858799,35.092843,דיל כורדני,/umbracoContent/Images/Branches/NetworkLogos/2.png,68,מיכה שמלאשוילי,04-6606673,א,8:00,22:00,ב,8:00,22:00,ג,8:00,22:00,ד,8:00,22:00,ה,8:00,23:00,ו,7:30,14:30,,,,קרית מוצקין,2,שופרסל דיל,1 שד' ירושלים,/umbracoContent/Images/Branches/DepartmentsLogos/1.png,,/umbracoContent/Images/Branches/DepartmentsLogos/logos_default.png,מכבדים תווי קניה,גישה נגישה,,,,,,,,,,,,,,,,
32.117274,34.796662,"שלי ת""א- רמת אביב ב",/umbracoContent/Images/Branches/NetworkLogos/1.png,69,גילה ריזייב,03-6426007,א,7:00,22:00,ב,7:00,22:00,ג,7:00,22:00,ד,7:00,22:00,ה,7:00,23:00,ו,7:00,14:30,,,,תל אביב,1,שופרסל שלי,38 טאגור,,,,,,,,,,,,,,,,,,,,,
32.0725979,34.8308723,שלי רמת גן- מרום נווה,/umbracoContent/Images/Branches/NetworkLogos/1.png,70,מנשה ונגר,03-6779210,א,7:00,22:00,ב,7:00,22:00,ג,7:00,22:00,ד,7:00,22:00,ה,7:00,24:00,ו,6:00,14:30,ש,18:45,23:00,רמת גן,1,שופרסל שלי,"תרצה 19 ר""ג",,,,,,,,,,,,,,,,,,,,,
32.7780814,35.0410251,דיל אקסטרה תל חנן  נשר,/umbracoContent/Images/Branches/NetworkLogos/4.gif,71,אליהו קבסה,04-8209400,א,9:00,22:00,ב,9:00,22:00,ג,9:00,22:00,ד,9:00,23:00,ה,9:00,24:00,ו,8:00,14:30,ש,18:45,22:30,נשר,4,שופרסל דיל אקסטרה,147 ר יהודה.,,,,,,,,,,,,,,,,,,,,,
31.886592,35.01739,שלי מודיעין רעות,/umbracoContent/Images/Branches/NetworkLogos/1.png,72,חגי רון,08-9263867,א,7:00,21:00,ב,7:00,21:00,ג,7:00,21:00,ד,7:00,21:00,ה,7:00,22:00,ו,7:00,14:30,,,,מודיעין,1,שופרסל שלי,שד' עומרים מ.מסח,,,,,,,,,,,,,,,,,,,,,
32.322861,34.870534,דיל נתניה- הדרים,/umbracoContent/Images/Branches/NetworkLogos/2.png,74,חנניה יוחנן,09-8628464,א,7:00,22:00,ב,7:00,22:00,ג,7:00,22:00,ד,7:00,23:00,ה,7:00,23:00,ו,6:30,14:30,ש,18:45,22:00,נתניה,2,שופרסל דיל,2 הקדר,,,,,,,,,,,,,,,,,,,,,
32.1023336,35.2086928,דיל אריאל,/umbracoContent/Images/Branches/NetworkLogos/2.png,76,פרנק בן סיניור,03-7566458,א,8:00,21:00,ב,8:00,21:00,ג,8:00,21:00,ד,8:00,22:00,ה,8:00,22:00,ו,7:00,14:30,ש,18:45,22:00,אריאל,2,שופרסל דיל,2 רח מוריה,,,,,,,,,,,,,,,,,,,,,
32.470801,35.03907,דיל חריש,/umbracoContent/Images/Branches/NetworkLogos/2.png,77,שלומי גואז,04-8579330,א,8:00,21:00,ב,8:00,21:00,ג,8:00,21:00,ד,8:00,22:00,ה,8:00,22:00,ו,7:00,14:30,ש,18:45,22:00,חריש,2,שופרסל דיל,2 רח' דרך ארץ,,,,,,,,,,,,,,,,,,,,,
31.785401,35.173289,יש הר נוף ירושלים-שאולזו,/umbracoContent/Images/Branches/NetworkLogos/6.png,78,ישראל רייס,02-6524536,א,7:30,22:00,ב,7:30,22:00,ג,7:30,22:00,ד,7:30,23:00,ה,7:30,23:00,ו,7:30,15:00,,,,ירושלים,6,יש,56 שאולזון,,,,,,,,,,,,,,,,,,,,,
32.4624477,35.0492064,אקספרס חריש,/umbracoContent/Images/Branches/NetworkLogos/7.png,79,חאוזי מרון,04-9033604,א,6:30,21:00,ב,6:30,21:00,ג,6:30,21:00,ד,6:30,21:00,ה,6:30,21:00,ו,6:00,15:30,,,,חריש,7,שופרסל אקספרס,3 טורקיז,,,,,,,,,,,,,,,,,,,,,
31.961626,34.817311,"שלי ראשל""צ- נווה הדרים",/umbracoContent/Images/Branches/NetworkLogos/1.png,80,מרדכי מור סנדרס,03-9671580,א,7:00,21:00,ב,7:00,21:00,ג,7:00,21:00,ד,7:00,21:00,ה,7:00,21:30,ו,6:30,14:30,,,,ראשון לציון,1,שופרסל שלי,2 ברנשטיין,,,,,,,,,,,,,,,,,,,,,
32.0114571,34.7880585,אקספרס חולון,/umbracoContent/Images/Branches/NetworkLogos/7.png,82,משה דוידוב,037754292,א,6:30,20:30,ב,6:30,20:30,ג,6:30,20:30,ד,6:30,20:30,ה,6:30,20:30,ו,6:30,15:30,,,,חולון,7,שופרסל אקספרס,2 שמריהו לוין,,,,,,,,,,,,,,,,,,,,,
31.257398,34.76719,"דיל ב""ש- שאול המלך",/umbracoContent/Images/Branches/NetworkLogos/2.png,83,בת שבע אוחיון,086437108/87,א,7:00,21:00,ב,7:00,21:00,ג,7:00,21:00,ד,7:00,21:00,ה,7:00,21:00,ו,7:00,14:30,,,,באר שבע,2,שופרסל דיל,קניון שאול המלך,,,,,,,,,,,,,,,,,,,,,
31.8897867,34.9192773,אקספרס בית חשמונאי,/umbracoContent/Images/Branches/NetworkLogos/7.png,84,דודי אוחיון,089323151,א,7:00,21:00,ב,7:00,21:00,ג,7:00,21:00,ד,7:00,21:00,ה,7:00,21:00,ו,6:30,15:30,,,,בית חשמונאי,7,שופרסל אקספרס,1 דרך יונתן,,,,,,,,,,,,,,,,,,,,,
32.193247,34.880094,דיל רעננה- החרושת,/umbracoContent/Images/Branches/NetworkLogos/2.png,87,מיכאל מורדכוביץ,09-7434774,א,8:00,22:00,ב,8:00,22:00,ג,8:00,23:00,ד,8:00,23:00,ה,8:00,24:00,ו,7:00,14:30,ש,18:45,22:30,רעננה,2,שופרסל דיל,8 החרושת,,,,,,,,,,,,,,,,,,,,,
31.925905,34.864447,דיל עזריאלי - רמלה,/umbracoContent/Images/Branches/NetworkLogos/2.png,89, ,08-8560598,א,8:00,21:00,ב,8:00,21:00,ג,8:00,21:00,ד,8:00,22:00,ה,8:00,22:00,ו,7:00,14:30,ש,18:45,22:00,רמלה,2,שופרסל דיל,23 שמשון הגיבור,,,,,,,,,,,,,,,,,,,,,
31.2631745,34.8131896,אקספרס גב ים באר שבע,/umbracoContent/Images/Branches/NetworkLogos/7.png,90,תומר מגדינו,08 6154334,א,7:00,20:30,ב,7:00,20:30,ג,7:00,20:30,ד,7:00,20:30,ה,7:00,20:30,ו,6:30,15:30,,,,באר שבע,7,שופרסל אקספרס,77 אנרגיה,,,,,,,,,,,,,,,,,,,,,
32.030027,34.877792,שלי יהוד- סביונים,/umbracoContent/Images/Branches/NetworkLogos/1.png,93,יוליה ירמולוביץ,03-5367898/91,א,8:00,22:00,ב,8:00,22:00,ג,8:00,22:00,ד,8:00,22:00,ה,8:00,22:00,ו,6:30,14:30,ש,18:45,22:00,יהוד,1,שופרסל שלי,7 דרך משה דיין,/umbracoContent/Images/Branches/DepartmentsLogos/4.png,גרין,,,,,,,,,,,,,,,,,,,
32.502043,34.927962,דיל אור עקיבא קניון אורו,/umbracoContent/Images/Branches/NetworkLogos/2.png,95,עאוני כתורה,04-6261980,א,7:00,21:00,ב,7:00,21:30,ג,7:00,21:30,ד,7:00,22:00,ה,7:00,23:00,ו,7:00,14:30,ש,18:45,22:00,אור עקיבא,2,שופרסל דיל,קניון אורות,,,,,,,,,,,,,,,,,,,,,
32.415318,34.9519259,דיל חדרה- הפרדס,/umbracoContent/Images/Branches/NetworkLogos/2.png,96,מוהנד וותד,04-6207306/7,א,7:00,21:00,ב,7:00,21:00,ג,7:00,21:00,ד,7:00,21:00,ה,7:00,22:00,ו,7:00,14:30,,,,חדרה,2,שופרסל דיל,7 יקותיאל אדם,,,,,,,,,,,,,,,,,,,,,
33.1925231,35.571111,דיל קרית שמונה- מתחם ביג,/umbracoContent/Images/Branches/NetworkLogos/2.png,97,רוית כהן,04-8710646,א,8:00,22:00,ב,8:00,22:00,ג,8:00,22:00,ד,8:00,22:00,ה,8:00,22:00,ו,7:00,14:30,ש,18:45,22:00,קרית שמונה,2,שופרסל דיל,מתחם ביג,,,,,,,,,,,,,,,,,,,,,
32.710119,35.143138,דיל - אלונים,/umbracoContent/Images/Branches/NetworkLogos/2.png,98,דיקלה קובי ישראל,04-9530022,א,7:00,22:00,ב,7:00,22:00,ג,7:00,22:00,ד,7:00,22:00,ה,7:00,22:00,ו,7:00,14:30,,,,טבעון,2,שופרסל דיל,חוצות אלונים,/umbracoContent/Images/Branches/DepartmentsLogos/4.png,גרין,,,,,,,,,,,,,,,,,,,
32.304314,34.902149,שלי פרדסיה- הנשיא,/umbracoContent/Images/Branches/NetworkLogos/1.png,102,בדראן קבהא,09-8946751,א,8:00,21:00,ב,8:00,21:00,ג,8:00,21:00,ד,8:00,21:00,ה,8:00,22:00,ו,7:00,14:30,,,,פרדסיה,1,שופרסל שלי,הנשיא 1 צ.פרדסיה,,,,,,,,,,,,,,,,,,,,,
31.9985116,34.9466926,שלי שוהם- מרכז מסחרי,/umbracoContent/Images/Branches/NetworkLogos/1.png,103,אברהם עדן,03-9793158,א,7:00,21:00,ב,7:00,21:00,ג,7:00,21:00,ד,7:00,21:00,ה,7:00,22:00,ו,7:00,14:30,ש,18:45,22:00,שוהם,1,שופרסל שלי,30 עמק אילון,,,,,,,,,,,,,,,,,,,,,
32.080949,34.901436,"דיל פ""ת- אליעזר פרדימן",/umbracoContent/Images/Branches/NetworkLogos/2.png,105,איהב קעדאן,03-9086005,א,7:45,22:00,ב,7:45,22:00,ג,7:45,22:00,ד,7:45,22:00,ה,7:45,22:00,ו,7:00,14:30,ש,18:45,22:00,פתח תקווה,2,שופרסל דיל,9 אליעזר פרידמן,,,,,,,,,,,,,,,,,,,,,
31.921289,34.791161,דיל אקסטרה נס ציונה הפטי,/umbracoContent/Images/Branches/NetworkLogos/4.gif,106,יגאל אלקיים,08-9384742,א,9:00,22:00,ב,9:00,22:00,ג,9:00,22:00,ד,9:00,23:00,ה,9:00,24:00,ו,8:00,14:30,ש,18:45,22:00,נס ציונה,4,שופרסל דיל אקסטרה,".הפטיש 8,א.ת",,,,,,,,,,,,,,,,,,,,,
31.893301,34.806883,דיל רחובות- קניון,/umbracoContent/Images/Branches/NetworkLogos/2.png,107,אורן לוי,08-9493940,א,8:00,22:00,ב,8:00,22:00,ג,8:00,22:00,ד,8:00,22:00,ה,8:00,22:00,ו,8:00,14:30,ש,18:45,22:00,רחובות,2,שופרסל דיל,2 רח' בילו,,,,,,,,,,,,,,,,,,,,,
32.0929382,34.9681093,שלי ראש העין- ז'בוטינסקי,/umbracoContent/Images/Branches/NetworkLogos/1.png,109,מאגד ותד,03-9023937,א,7:00,22:00,ב,7:00,22:00,ג,7:00,22:00,ד,7:00,22:00,ה,7:00,22:30,ו,7:00,14:30,,,,ראש העין,1,שופרסל שלי,2 משה דיין,,,,,,,,,,,,,,,,,,,,,
31.9673936,34.7851612,"דיל ראשל""צ- גולדה מאיר",/umbracoContent/Images/Branches/NetworkLogos/2.png,113,יוליה איסטומין,03-9522940,א,8:00,22:00,ב,8:00,22:00,ג,8:00,22:00,ד,8:00,22:00,ה,8:00,23:00,ו,7:00,14:30,ש,18:45,22:00,ראשון לציון,2,שופרסל דיל,1 גולדה מאיר,,,,,,,,,,,,,,,,,,,,,
32.095807,34.776084,אקספרס דיזינגוף,/umbracoContent/Images/Branches/NetworkLogos/7.png,115,דניאל וקסלר,039551607,א,6:30,23:00,ב,6:30,23:00,ג,6:30,23:00,ד,6:30,23:00,ה,6:30,23:00,ו,6:30,15:30,ש,18:45,23:00,תל אביב,7,שופרסל אקספרס,279 דיזינגוף,,,,,,,,,,,,,,,,,,,,,
31.9059985,35.0192993,דיל מודיעין- סנטר,/umbracoContent/Images/Branches/NetworkLogos/2.png,119,מירב אלבחרי,08-9724126,א,7:30,22:00,ב,7:30,22:00,ג,7:30,22:00,ד,7:30,22:00,ה,7:30,22:30,ו,6:30,14:30,ש,18:45,22:00,מודיעין,2,שופרסל דיל,21   צאלון,,,,,,,,,,,,,,,,,,,,,
32.1721909,34.9044279,אקספרס אוסטשינסקי  כ.סבא,/umbracoContent/Images/Branches/NetworkLogos/7.png,171,יחזקאל הירשמן,09-9519355,א,6:30,21:00,ב,6:30,21:00,ג,6:30,21:00,ד,6:30,21:00,ה,6:30,21:00,ו,6:30,15:30,,,,כפר סבא,7,שופרסל אקספרס,15 אוסטשינסקי,,,,,,,,,,,,,,,,,,,,,
31.258872,35.208972,דיל ערד- קניון,/umbracoContent/Images/Branches/NetworkLogos/2.png,174,אבי לוי,08-9971164,א,8:00,22:00,ב,8:00,22:00,ג,8:00,22:00,ד,8:00,22:00,ה,8:00,23:00,ו,7:30,14:30,ש,18:45,22:00,ערד,2,שופרסל דיל,29 הקנאים,,,,,,,,,,,,,,,,,,,,,
32.7872786,35.540761,אקספרס טבריה,/umbracoContent/Images/Branches/NetworkLogos/7.png,175,אוריאל מונסטרסקי,04-6792588,א,7:00,21:00,ב,7:00,21:00,ג,7:00,21:00,ד,7:00,21:00,ה,7:00,21:00,ו,7:00,15:30,,,,טבריה,7,שופרסל אקספרס,6 הבנים,,,,,,,,,,,,,,,,,,,,,
30.6127950,34.8026040,דיל מצפה רמון- בן גוריון,/umbracoContent/Images/Branches/NetworkLogos/2.png,177,דודו דרעי,08-6588406,א,8:00,20:00,ב,8:00,20:00,ג,8:00,20:00,ד,8:00,20:30,ה,7:30,21:00,ו,7:00,14:30,,,,מצפה רמון,2,שופרסל דיל,2 שד' בן גוריון,,,,,,,,,,,,,,,,,,,,,
32.0741631,34.8228148,"אקספרס שד ירושלים ר""ג",/umbracoContent/Images/Branches/NetworkLogos/7.png,179,אהרון בר,03-7730255,א,6:30,21:00,ב,6:30,21:00,ג,6:30,21:00,ד,6:30,21:30,ה,6:30,21:00,ו,6:30,15:30,ש,18:45,23:00,רמת גן,7,שופרסל אקספרס,152 הרואה,,,,,,,,,,,,,,,,,,,,,
32.840073,35.079994,דיל ק.מוצקין- בן גוריון,/umbracoContent/Images/Branches/NetworkLogos/2.png,180,חוה זיו,04-8762397,א,7:00,22:00,ב,7:00,22:00,ג,7:00,22:00,ד,7:00,22:00,ה,7:00,22:00,ו,7:00,14:30,ש,18:45,22:00,קרית מוצקין,2,שופרסל דיל,84 שד' בן גוריון,,,,,,,,,,,,,,,,,,,,,
31.667683,34.581803,דיל אשקלון- רמז,/umbracoContent/Images/Branches/NetworkLogos/2.png,181,אושרת וטורי,08-6722121,א,8:00,21:00,ב,8:00,21:00,ג,8:00,21:00,ד,8:00,22:00,ה,8:00,23:00,ו,7:00,14:30,ש,18:45,22:00,אשקלון,2,שופרסל דיל,39 דוד רמז,,,,,,,,,,,,,,,,,,,,,
31.074239,35.031423,דיל דימונה- גולדה מאיר,/umbracoContent/Images/Branches/NetworkLogos/2.png,182,ויאצ'סלב דוידוב,08-6555454,א,8:00,22:00,ב,8:00,22:00,ג,8:00,22:00,ד,8:00,22:00,ה,8:00,23:00,ו,7:00,14:30,ש,18:45,22:00,דימונה,2,שופרסל דיל,1 גולדה מאיר,,,,,,,,,,,,,,,,,,,,,
31.793049,34.640119,דיל אשדוד- הרצל,/umbracoContent/Images/Branches/NetworkLogos/2.png,183,רינה סתיו,08-8651888,א,7:30,22:00,ב,7:30,22:00,ג,7:30,22:00,ד,7:30,22:00,ה,7:30,23:00,ו,7:00,14:30,ש,18:45,22:00,אשדוד,2,שופרסל דיל,1 רח' הרצל,,,,,,,,,,,,,,,,,,,,,
31.961768,34.799993,"דיל ראשל""צ- זבוטינסקי",/umbracoContent/Images/Branches/NetworkLogos/2.png,184,אינה איפראימוב,03-9670041,א,8:00,21:00,ב,8:00,21:00,ג,8:00,21:00,ד,8:00,21:00,ה,8:00,22:00,ו,7:00,14:30,,,,ראשון לציון,2,שופרסל דיל,16 זבוטינסקי,,,,,,,,,,,,,,,,,,,,,
32.8158611,34.9798831,אקספרס התשבי,/umbracoContent/Images/Branches/NetworkLogos/7.png,186,טלי מכלוף,04-7741269,א,6:30,20:30,ב,6:30,20:30,ג,6:30,20:30,ד,6:30,20:30,ה,6:30,20:30,ו,6:30,15:30,,,,חיפה,7,שופרסל אקספרס,9 התשבי,,,,,,,,,,,,,,,,,,,,,
31.7714759,35.3006227,דיל מעלה אדומים,/umbracoContent/Images/Branches/NetworkLogos/2.png,187,מחמד מחיסן,02-6322125,א,9:00,21:00,ב,9:00,21:00,ג,9:00,21:00,ד,9:00,22:00,ה,9:00,23:00,ו,8:00,14:30,ש,18:45,22:00,מעלה אדומים,2,שופרסל דיל,5 דרך קדם,/umbracoContent/Images/Branches/DepartmentsLogos/4.png,גרין,,,,,,,,,,,,,,,,,,,
30.987638,34.927942,דיל ירוחם- צבי בורנשטיין,/umbracoContent/Images/Branches/NetworkLogos/2.png,188,דני סרור,08-6580346,א,6:30,21:00,ב,6:30,21:00,ג,6:30,21:00,ד,6:30,21:00,ה,6:30,22:00,ו,6:30,14:30,,,,ירוחם,2,שופרסל דיל,צבי בורנשטין,,,,,,,,,,,,,,,,,,,,,
32.476284,34.9742517,דיל פרדס חנה,/umbracoContent/Images/Branches/NetworkLogos/2.png,189,בוריס ינובסקי,04-6338631,א,7:00,21:00,ב,7:00,21:00,ג,7:00,21:00,ד,7:00,22:00,ה,7:00,23:00,ו,7:00,14:30,,,,פרדס חנה,2,שופרסל דיל,17  רחוב הבנים,,,,,,,,,,,,,,,,,,,,,
32.981331,35.556246,דיל חצור- הגלילית,/umbracoContent/Images/Branches/NetworkLogos/2.png,190,סעיד גנאים,04-6931835,א,7:00,21:00,ב,7:00,21:00,ג,7:00,21:00,ד,7:00,21:00,ה,7:00,22:00,ו,7:00,14:30,,,,חצור הגלילית,2,שופרסל דיל,קניון גליל עליון,,,,,,,,,,,,,,,,,,,,,
32.086488,34.781389,שלי-אבן גבירול,/umbracoContent/Images/Branches/NetworkLogos/1.png,196,אריק גבריאל,03-5278806,א,7:30,21:30,ב,7:30,21:30,ג,7:30,21:30,ד,7:30,21:30,ה,7:30,21:30,ו,7:30,14:30,,,,תל אביב,1,שופרסל שלי,124 אבן גבירול,,,,,,,,,,,,,,,,,,,,,
32.028941,34.7430173,דיל בת ים- בלפור,/umbracoContent/Images/Branches/NetworkLogos/2.png,199,גדעון סלע,03-5089432,א,7:00,21:00,ב,7:00,21:00,ג,7:00,21:00,ד,7:00,22:00,ה,7:00,22:00,ו,7:00,14:30,,,,בת ים,2,שופרסל דיל,25 בלפור,,,,,,,,,,,,,,,,,,,,,
31.7199249,35.0917502,אקספרס צור הדסה,/umbracoContent/Images/Branches/NetworkLogos/7.png,293,חן אטיאס,025848076,א,6:30,21:00,ב,6:30,21:00,ג,6:30,21:00,ד,6:30,21:00,ה,6:30,21:00,ו,6:30,15:00,,,,צור הדסה,7,שופרסל אקספרס,2 הדרור,,,,,,,,,,,,,,,,,,,,,
32.0785,34.839967,יש חסד בני ברק-שלמה המלך,/umbracoContent/Images/Branches/NetworkLogos/6.png,295,אפרים פישל רוט,03-6776250,א,10:30,23:00,ב,10:30,23:00,ג,10:30,23:00,ד,10:30,24:00,ה,10:30,24:00,ו,7:30,14:30,,,,בני ברק,6,יש,12   שלמה המלך,,,,,,,,,,,,,,,,,,,,,
31.712476,34.987987,יש חסד בית שמש- מ. מסחרי,/umbracoContent/Images/Branches/NetworkLogos/6.png,606, ,02-9998424,א,7:30,23:00,ב,7:30,23:00,ג,7:30,23:00,ד,7:30,24:00,ה,7:30,24:00,ו,7:30,14:30,ש,21:00,24:00,בית שמש,6,יש,2 נחל צאלים,,,,,,,,,,,,,,,,,,,,,
31.929553,35.037795,יש חסד מודיעין עלי-ק.ספר,/umbracoContent/Images/Branches/NetworkLogos/6.png,607, ,08-9743840,א,7:30,23:00,ב,7:30,23:00,ג,7:30,23:00,ד,7:30,24:00,ה,7:30,24:00,ו,7:30,14:30,,,,קרית ספר,6,יש,46 אבני נזר,,,,,,,,,,,,,,,,,,,,,
31.79156,35.190436,יש חסד ירושלים-גבעת שאול,/umbracoContent/Images/Branches/NetworkLogos/6.png,608, ,02-6513567,א,7:30,23:00,ב,7:30,23:00,ג,7:30,23:00,ד,7:30,24:00,ה,7:30,24:00,ו,7:30,14:30,ש,21:00,24:00,גבעת שאול ים,6,יש,2 נאג'רה,,,,,,,,,,,,,,,,,,,,,
32.052067,34.950428,יש חסד אלעד-ניסים גאון,/umbracoContent/Images/Branches/NetworkLogos/6.png,609, ,03-9331638,א,7:30,23:00,ב,7:30,23:00,ג,7:30,23:00,ד,7:30,24:00,ה,7:30,24:00,ו,7:30,14:30,ש,21:00,24:00,אלעד,6,יש,79 ניסים גאון,,,,,,,,,,,,,,,,,,,,,
31.811315,35.21738,יש חסד ירושלים- רמת שלמה,/umbracoContent/Images/Branches/NetworkLogos/6.png,610, ,02-5870977,א,7:30,23:00,ב,7:30,23:00,ג,7:30,23:00,ד,7:30,24:00,ה,7:30,24:00,ו,7:30,14:30,ש,21:00,24:00,ירושלים,6,יש,22 ברכת אברהם,,,,,,,,,,,,,,,,,,,,,
32.090167,34.837708,יש חסד בני ברק- השומר,/umbracoContent/Images/Branches/NetworkLogos/6.png,611, ,03-6166313,א,7:30,23:00,ב,7:30,23:00,ג,7:30,23:00,ד,7:30,24:00,ה,7:30,24:00,ו,7:30,14:30,ש,21:00,24:00,בני ברק,6,יש,10 השומר,,,,,,,,,,,,,,,,,,,,,
32.070315,34.823377,אקספרס רמת גן נגבה,/umbracoContent/Images/Branches/NetworkLogos/7.png,844, ,037330245,א,7:00,22:00,ב,7:00,22:00,ג,7:00,22:00,ד,7:00,22:00,ה,7:00,22:00,ו,6:30,15:30,,,,רמת גן,7,שופרסל אקספרס,8 נגבה,,,,,,,,,,,,,,,,,,,,,
32.1746953,34.903589,"אקספרס כ""ס נחשון",/umbracoContent/Images/Branches/NetworkLogos/7.png,845, ,097441712,א,6:30,21:00,ב,6:30,21:00,ג,6:30,21:00,ד,6:30,21:00,ה,6:30,21:00,ו,6:30,15:30,,,,כפר סבא,7,שופרסל אקספרס,10 נחשון,,,,,,,,,,,,,,,,,,,,,
32.14259,34.891786,שלי הוד השרון- ק מרגלית,/umbracoContent/Images/Branches/NetworkLogos/1.png,101,מוחמד אבו עסבה,09-7404280,א,7:00,22:00,ב,7:00,22:00,ג,7:00,22:00,ד,7:00,22:00,ה,7:00,22:00,ו,7:00,14:30,ש,18:45,22:00,הוד השרון,1,שופרסל שלי,זבוטינסקי 3 קניו,,,,,,,,,,,,,,,,,,,,,
32.008401,34.745649,דיל בת ים- אורט ישראל,/umbracoContent/Images/Branches/NetworkLogos/2.png,124,ויקטוריה פטיחובסקי,03-5282927,א,8:00,22:00,ב,8:00,22:00,ג,8:00,22:00,ד,8:00,23:00,ה,8:00,23:00,ו,7:00,14:30,ש,18:45,22:00,בת ים,2,שופרסל דיל,25 אורט ישראל,,,,,,,,,,,,,,,,,,,,,
32.16001,34.806925,דיל הרצליה- המנופים,/umbracoContent/Images/Branches/NetworkLogos/2.png,125,וגדי עסלי,09-9581837,א,8:00,21:00,ב,8:00,21:00,ג,8:00,21:00,ד,8:00,22:00,ה,8:00,22:00,ו,7:30,14:30,,,,הרצליה,2,שופרסל דיל,9 המנופים,,,,,,,,,,,,,,,,,,,,,
32.785272,34.962508,דיל טירת הכרמל- נחום חת,/umbracoContent/Images/Branches/NetworkLogos/2.png,128,כרם סלים,04-8500626,א,8:00,23:00,ב,8:00,23:00,ג,8:00,23:00,ד,8:00,23:00,ה,8:00,24:00,ו,7:00,14:30,ש,18:45,23:00,טירת הכרמל,2,שופרסל דיל,5 נחום חת,,,,,,,,,,,,,,,,,,,,,
32.045813,34.906363,יש חסד בארות יצחק- פאוור,/umbracoContent/Images/Branches/NetworkLogos/6.png,300,מחמד סלאמה,03-9094058,א,10:00,22:00,ב,10:00,22:00,ג,10:00,23:00,ד,10:00,24:00,ה,10:00,24:00,ו,7:30,15:00,,,,בארות יצחק,6,יש,בארות יצחק,,,,,,,,,,,,,,,,,,,,,
32.8022791,34.9853553,שלי חיפה- קלר,/umbracoContent/Images/Branches/NetworkLogos/1.png,302,חיים חנוכה,04-8371639,א,7:00,20:00,ב,7:00,20:00,ג,7:00,20:00,ד,7:00,20:00,ה,7:00,21:00,ו,7:00,14:30,,,,חיפה,1,שופרסל שלי,7 קלר,,,,,,,,,,,,,,,,,,,,,
32.714313,35.124425,שלי טבעון- יהודה הנשיא,/umbracoContent/Images/Branches/NetworkLogos/1.png,303,פנחס גבאי,04-9831249,א,7:30,19:30,ב,7:30,19:30,ג,7:30,19:30,ד,7:30,19:30,ה,7:30,20:00,ו,7:00,14:30,,,,קרית טבעון,1,שופרסל שלי,יהודה הנשיא,,,,,,,,,,,,,,,,,,,,,
32.094127,34.7928279,"אקספרס ת""א- יהודה המכבי",/umbracoContent/Images/Branches/NetworkLogos/7.png,305,בני זבליאנוב,03-6024343,א,6:30,23:00,ב,6:30,23:00,ג,6:30,23:00,ד,6:30,23:00,ה,6:30,23:00,ו,6:30,15:30,ש,18:45,23:00,תל אביב,7,שופרסל אקספרס,81 יהודה מכבי,,,,,,,,,,,,,,,,,,,,,
32.789778,35.013164,יש נוה שאנן חיפה- חניתה,/umbracoContent/Images/Branches/NetworkLogos/6.png,306,נאסר שרקיה,04-8221191,א,7:30,21:00,ב,7:30,21:00,ג,7:30,21:00,ד,7:30,22:00,ה,7:30,22:00,ו,7:30,15:00,,,,חיפה,6,יש,64 רח' חניתה,,,,,,,,,,,,,,,,,,,,,
32.6944805,35.4160699,דיל כפר תבור,/umbracoContent/Images/Branches/NetworkLogos/2.png,255,אורלי בללי,046930807,א,8:00,21:00,ב,8:00,21:00,ג,8:00,21:00,ד,8:00,21:00,ה,8:00,22:00,ו,7:00,14:30,,,,כפר תבור,2,שופרסל דיל,2 רחוב הבזלת,,,,,,,,,,,,,,,,,,,,,
32.81289,35.100716,יש קרית אתא- זבולון,/umbracoContent/Images/Branches/NetworkLogos/6.png,307,גד אביגד,04-8447487,א,7:30,21:00,ב,7:30,21:00,ג,7:30,21:00,ד,7:30,22:00,ה,7:30,22:00,ו,7:00,15:00,,,,קרית אתא,6,יש,4 רח.זבולון,,,,,,,,,,,,,,,,,,,,,
32.813630,35.115796,שלי קרית אתא- איינשטין,/umbracoContent/Images/Branches/NetworkLogos/1.png,308,אמה שסטופלוב,04-8456518,א,7:30,20:00,ב,7:30,20:00,ג,7:30,20:00,ד,7:30,20:00,ה,7:30,20:00,ו,7:00,14:30,,,,קרית אתא,1,שופרסל שלי,20 איינשטיין,,,,,,,,,,,,,,,,,,,,,
32.8286026,35.0600005,שלי קרית חיים- דגניה,/umbracoContent/Images/Branches/NetworkLogos/1.png,310,אשר קלינגר,04-8417335,א,7:30,19:30,ב,7:30,19:30,ג,7:30,19:30,ד,7:30,20:00,ה,7:30,20:00,ו,7:30,14:30,,,,קרית חיים,1,שופרסל שלי,14 ד.דגניה,,,,,,,,,,,,,,,,,,,,,
31.9032733,34.8122236,אקספרס רחובות- בוסתנאי,/umbracoContent/Images/Branches/NetworkLogos/7.png,311,אריק לייבוביץ,08-9319955,א,6:30,21:00,ב,6:30,21:00,ג,6:30,21:00,ד,6:30,21:00,ה,6:30,21:00,ו,6:30,15:30,,,,רחובות,7,שופרסל אקספרס,14 בוסתנאי,,,,,,,,,,,,,,,,,,,,,
32.825495,34.9830057,דיל חיפה- קרית אליעזר,/umbracoContent/Images/Branches/NetworkLogos/2.png,312,אבי אגמון,04-8517826,א,7:00,21:00,ב,7:00,21:00,ג,7:00,21:00,ד,7:00,21:00,ה,7:00,21:00,ו,7:00,14:30,,,,חיפה,2,שופרסל דיל,9   ככר מאירהוף,,,,,,,,,,,,,,,,,,,,,
33.0009766,35.0971756,דיל נהריה- לוחמי הגטאות,/umbracoContent/Images/Branches/NetworkLogos/2.png,121,גלית אליאספור,04-9513303,א,7:00,22:00,ב,7:00,22:00,ג,7:00,22:00,ד,7:00,22:00,ה,7:00,23:00,ו,7:00,14:30,,,,נהריה,2,שופרסל דיל,36 לוחמי הגטאות,,,,,,,,,,,,,,,,,,,,,
32.400506,34.90247,"שלי קרית חיים-אח""י אילת",/umbracoContent/Images/Branches/NetworkLogos/1.png,313,אבידור כהן,04-8720476,א,7:00,20:00,ב,7:00,20:00,ג,7:00,20:00,ד,7:00,20:00,ה,7:00,20:00,ו,7:00,14:30,,,,קרית חיים,1,שופרסל שלי,"20 שד.אח""י אילת",,,,,,,,,,,,,,,,,,,,,
32.78478,34.9936664,יש  חיפה- צרפת,/umbracoContent/Images/Branches/NetworkLogos/6.png,314,גיל גביזון,04-8314823,א,7:30,21:00,ב,7:30,21:00,ג,7:30,21:00,ד,7:30,22:00,ה,7:30,22:00,ו,7:30,15:00,,,,חיפה,6,יש,11 דרך צרפת,,,,,,,,,,,,,,,,,,,,,
32.2735509,34.8738304,אקספרס כפר נטר,/umbracoContent/Images/Branches/NetworkLogos/7.png,315,ציון מור,09 8990865,א,7:00,21:00,ב,7:00,21:00,ג,7:00,21:00,ד,7:00,21:00,ה,7:00,21:00,ו,7:00,15:30,,,,כפר נטר,7,שופרסל אקספרס,17 ההדרים,,,,,,,,,,,,,,,,,,,,,
32.832966,35.073015,שלי קרית מוצקין-שד ויצמן,/umbracoContent/Images/Branches/NetworkLogos/1.png,316,גל שגב,04-8719545,א,7:00,20:00,ב,7:00,20:00,ג,7:00,20:00,ד,7:00,20:00,ה,7:00,20:00,ו,7:00,14:30,,,,קרית מוצקין,1,שופרסל שלי,1 שד. ויצמן,,,,,,,,,,,,,,,,,,,,,
32.517149,35.006543,אקספרס גבעת עדה,/umbracoContent/Images/Branches/NetworkLogos/7.png,317,גיא ספיאשוילי,04-6359984,א,6:30,21:00,ב,6:30,21:00,ג,6:30,21:00,ד,6:30,21:00,ה,6:30,21:00,ו,6:30,15:30,,,,גבעת עדה,7,שופרסל אקספרס,67 חי,,,,,,,,,,,,,,,,,,,,,
32.8228806,35.07549,אקספרס קריית חיים,/umbracoContent/Images/Branches/NetworkLogos/7.png,304, ,04-8411835,א,7:00,20:00,ב,7:00,20:00,ג,7:00,20:00,ד,7:00,20:00,ה,7:00,20:00,ו,6:30,15:30,,,,קרית חיים,7,שופרסל אקספרס,24 ציזלינג אהרון,,,,,,,,,,,,,,,,,,,,,
32.708317,35.324113,שלי רסקו נוף הגליל-הדקל,/umbracoContent/Images/Branches/NetworkLogos/1.png,323,מתתיהו איפרגן,04-6554639,א,8:00,19:30,ב,8:00,19:30,ג,8:00,19:30,ד,8:00,19:30,ה,8:00,19:30,ו,7:30,14:30,,,,נוף הגליל,1,שופרסל שלי,מרכז מסחרי רסקו,,,,,,,,,,,,,,,,,,,,,
32.9375121,35.0758353,שלי עכו- שפירא,/umbracoContent/Images/Branches/NetworkLogos/1.png,319,אינה גרנקין,04-9815043,א,7:00,20:00,ב,7:00,20:00,ג,7:00,20:00,ד,7:00,20:00,ה,7:00,20:00,ו,7:00,14:30,,,,עכו,1,שופרסל שלי,28 רח.משה שפירא,,,,,,,,,,,,,,,,,,,,,
32.050016,34.875605,אקספרס סביון- השקמה,/umbracoContent/Images/Branches/NetworkLogos/7.png,324,אבי גרוסמן,03-5343114,א,6:30,20:00,ב,6:30,20:00,ג,6:30,20:00,ד,6:30,20:00,ה,6:30,20:00,ו,6:00,15:30,,,,סביון,7,שופרסל אקספרס,1 השקמה,,,,,,,,,,,,,,,,,,,,,
32.0364164,34.7628409,אקספרס חולון - וולפסון,/umbracoContent/Images/Branches/NetworkLogos/7.png,318,אמיר אבלאסי,03-6320583,א,7:00,21:00,ב,7:00,21:00,ג,7:00,21:00,ד,7:00,21:00,ה,7:00,21:00,ו,7:00,15:30,,,,חולון,7,שופרסל אקספרס,62 הלוחמים,,,,,,,,,,,,,,,,,,,,,
31.9361645,34.7964321,אקספרס ששת הימים נס ציונ,/umbracoContent/Images/Branches/NetworkLogos/7.png,325,אורן וקסמן,088664225,א,6:30,21:00,ב,6:30,21:00,ג,6:30,21:00,ד,6:30,21:00,ה,6:30,21:00,ו,6:30,15:30,,,,נס ציונה,7,שופרסל אקספרס,1 ששת הימים,,,,,,,,,,,,,,,,,,,,,
32.8078263,34.9763453,אקספרס האילנות,/umbracoContent/Images/Branches/NetworkLogos/7.png,328,אשר ויספיש,049557443,א,6:30,21:00,ב,6:30,21:00,ג,6:30,21:00,ד,6:30,21:00,ה,6:30,21:00,ו,6:30,15:30,,,,חיפה,7,שופרסל אקספרס,2 האילנות,,,,,,,,,,,,,,,,,,,,,
32.6427318,35.0923009,יש יוקנעם עילית-היובלים,/umbracoContent/Images/Branches/NetworkLogos/6.png,329,סלומון תורגמן,04-9892152,א,7:30,21:00,ב,7:30,21:00,ג,7:30,21:00,ד,7:30,22:00,ה,7:30,22:00,ו,7:30,15:00,,,,יוקנעם,6,יש,מ.מסחרי יקנעם על,,,,,,,,,,,,,,,,,,,,,
31.884666,34.737795,דיל יבנה- ברוש דרך הים,/umbracoContent/Images/Branches/NetworkLogos/2.png,122,אהרון בלוקה,08-9428160,א,8:00,21:00,ב,8:00,21:00,ג,8:00,21:00,ד,8:00,22:00,ה,8:00,22:30,ו,7:00,14:30,ש,18:45,22:00,יבנה,2,שופרסל דיל,3 דרך הים,,,,,,,,,,,,,,,,,,,,,
29.567833,34.959124,דיל אילת  הסתת,/umbracoContent/Images/Branches/NetworkLogos/2.png,118,אבנר לוי,08-6318338/659,א,8:00,22:00,ב,8:00,22:00,ג,8:00,22:00,ד,8:00,23:00,ה,8:00,24:00,ו,7:00,14:30,ש,18:45,22:00,אילת,2,שופרסל דיל,הסתת 15 א תעשיה,,,,,,,,,,,,,,,,,,,,,
32.074316,34.790904,"דיל ת""א- השלום",/umbracoContent/Images/Branches/NetworkLogos/2.png,132,שלמה משה,03-6095050,א,7:30,22:00,ב,7:30,22:00,ג,7:30,22:00,ד,7:30,22:00,ה,7:30,23:00,ו,7:30,14:30,,,,תל אביב,2,שופרסל דיל,132דרך מנחם בגין,,,,,,,,,,,,,,,,,,,,,
32.284203,34.859412,דיל אקסטרה נתניה- המלאכה,/umbracoContent/Images/Branches/NetworkLogos/4.gif,129,שושנה אלבז,09-8635333,א,9:00,22:00,ב,9:00,22:00,ג,9:00,22:00,ד,9:00,23:00,ה,9:00,24:00,ו,8:00,14:30,ש,18:45,22:00,נתניה,4,שופרסל דיל אקסטרה,32 רח' המלאכה,,,,,,,,,,,,,,,,,,,,,
32.011686,34.778473,דיל חולון- גולדה,/umbracoContent/Images/Branches/NetworkLogos/2.png,123,מירב אורגץ,03-5057252,א,8:30,22:00,ב,8:30,22:00,ג,8:30,22:00,ד,8:30,22:30,ה,8:30,22:30,ו,7:00,14:30,ש,18:45,22:00,חולון,2,שופרסל דיל,7  גולדה מאיר,/umbracoContent/Images/Branches/DepartmentsLogos/4.png,גרין,,,,,,,,,,,,,,,,,,,
32.0789722,34.8118239,שלי גבעתיים- מכתש,/umbracoContent/Images/Branches/NetworkLogos/1.png,116,סמי דה קמחי,03-6704405/6,א,7:00,21:00,ב,7:00,21:00,ג,7:00,21:00,ד,7:00,22:00,ה,7:00,22:00,ו,7:00,14:30,,,,גבעתיים,1,שופרסל שלי,54 בורוכוב,/umbracoContent/Images/Branches/DepartmentsLogos/4.png,גרין,,,,,,,,,,,,,,,,,,,
32.16593,34.901655,אקספרס הוד השרון סוקולוב,/umbracoContent/Images/Branches/NetworkLogos/7.png,131,לירון צורדקר,097656088,א,7:00,20:30,ב,7:00,20:30,ג,7:00,20:30,ד,7:00,20:30,ה,7:00,20:30,ו,6:30,15:30,ש,18:45,21:00,הוד השרון,7,שופרסל אקספרס,37 סוקולוב,,,,,,,,,,,,,,,,,,,,,
32.175415,34.914401,אקספרס כפר סבא תל-חי,/umbracoContent/Images/Branches/NetworkLogos/7.png,140,גילי אנקונינה,098611398,א,8:30,21:00,ב,8:30,21:00,ג,8:30,21:00,ד,8:00,22:00,ו,8:00,14:00,ש,19:00,22:00,,,,כפר סבא,7,שופרסל אקספרס,תל חי,,,,,,,,,,,,,,,,,,,,,
32.6424026,35.0946188,דיל יוקנעם- שדרות רבין,/umbracoContent/Images/Branches/NetworkLogos/2.png,141,דורון שפירא,04-9890705,א,7:30,21:30,ב,7:30,21:30,ג,7:30,21:30,ד,7:30,22:30,ה,7:30,22:30,ו,7:30,14:30,ש,18:45,22:00,יוקנעם,2,שופרסל דיל,9 שדרות רבין,,,,,,,,,,,,,,,,,,,,,
32.7879148,34.9881087,אקספרס חיפה מוריה,/umbracoContent/Images/Branches/NetworkLogos/7.png,143,צור דוד,04-8868482,א,6:30,20:00,ב,6:30,20:00,ג,6:30,20:00,ד,6:30,20:00,ה,6:30,21:30,ו,6:30,15:30,,,,חיפה,7,שופרסל אקספרס,128 שדרות מוריה,/umbracoContent/Images/Branches/DepartmentsLogos/1.png,גרין,/umbracoContent/Images/Branches/DepartmentsLogos/4.png,מכבדים תווי קניה,גישה נגישה,/umbracoContent/Images/Branches/DepartmentsLogos/7.png,/umbracoContent/Images/Branches/DepartmentsLogos/logos_default.png,משלוחים,,,,,,,,,,,,,
32.1922595,34.8924675,דיל שבירו כפר סבא,/umbracoContent/Images/Branches/NetworkLogos/2.png,144,יהודה גולדשטיין,098651302,א,8:00,22:00,ב,8:00,22:00,ג,8:00,22:00,ד,8:00,23:00,ה,8:00,23:00,ו,7:00,14:00,ש,18:45,22:00,כפר סבא,2,שופרסל דיל,10 רפפורט,,,,,,,,,,,,,,,,,,,,,
32.061218,34.8093913,שלי גבעתיים- הסתדרות,/umbracoContent/Images/Branches/NetworkLogos/1.png,146,עידן אלפרוביץ,03-6722818,א,7:30,20:00,ב,7:30,20:00,ג,7:30,20:00,ד,7:30,20:00,ה,7:30,21:00,ו,7:00,14:30,,,,גבעתיים,1,שופרסל שלי,27 הסתדרות,,,,,,,,,,,,,,,,,,,,,
31.9018885,34.8192392,אקספרס רחובות מלצר,/umbracoContent/Images/Branches/NetworkLogos/7.png,148,רובי רודף שלום,086362878,א,6:30,20:30,ב,6:30,20:30,ג,6:30,20:30,ד,6:30,20:30,ה,6:30,20:30,ו,6:30,15:30,,,,רחובות,7,שופרסל אקספרס,20 מלצר,,,,,,,,,,,,,,,,,,,,,
31.247654,35.196142,דיל ערד- ישפרו המנוף,/umbracoContent/Images/Branches/NetworkLogos/2.png,152,צביקה אסרף,08-8574812,א,8:00,21:00,ב,8:00,21:00,ג,8:00,21:00,ד,8:00,21:00,ה,8:00,22:00,ו,7:00,14:30,,,,ערד,2,שופרסל דיל,7 המנוף,,,,,,,,,,,,,,,,,,,,,
31.704118,35.116355,"יש חסד ביתר עילית-  הר""ן",/umbracoContent/Images/Branches/NetworkLogos/6.png,133,נועם כורש,025606664,א,7:30,23:00,ב,7:30,23:00,ג,7:30,23:00,ד,7:30,24:00,ה,7:30,24:00,ו,7:30,14:30,,,,ביתר עילית,6,יש,"6 הר""ן",,,,,,,,,,,,,,,,,,,,,
31.6758060,34.6066860,דיל אשקלון- פאור סנטר,/umbracoContent/Images/Branches/NetworkLogos/2.png,135,משה שוחט,08-6759992,א,9:00,22:00,ב,9:00,22:00,ג,9:00,22:00,ד,9:00,22:00,ה,9:00,23:00,ו,7:00,14:30,ש,18:45,22:00,אשקלון,2,שופרסל דיל,פאואר סנטר סילבר,,,,,,,,,,,,,,,,,,,,,
32.033544,34.89181,אשדוד C&C סניף,/umbracoContent/Images/Branches/NetworkLogos/2.png,161, ,,א,8:00,20:00,ב,8:00,20:00,ג,8:00,20:00,ד,8:00,21:00,ה,7:00,21:00,ו,7:00,14:00,,,,אשדוד,2,שופרסל דיל,הבושם,,,,,,,,,,,,,,,,,,,,,
32.307551,34.876163,דיל נתניה- קלאוזנר עמליה,/umbracoContent/Images/Branches/NetworkLogos/2.png,130,מוחמד גאנם,09-8826204/5,א,7:00,21:00,ב,7:00,21:00,ג,7:00,21:00,ד,7:00,22:00,ה,7:00,23:00,ו,7:00,14:30,,,,נתניה,2,שופרסל דיל,1 קלאוזנר,,,,,,,,,,,,,,,,,,,,,
32.219654,34.980848,דיל צור יגאל- מרכז מסחרי,/umbracoContent/Images/Branches/NetworkLogos/2.png,155,עמוס זכות,09-7492999,א,7:30,21:00,ב,7:30,21:00,ג,7:30,21:00,ד,7:30,22:00,ה,7:30,22:00,ו,7:00,14:00,ש,18:45,22:00,צור יגאל,2,שופרסל דיל,מרכז מסחרי,,,,,,,,,,,,,,,,,,,,,
31.3179929,34.6247938,דיל אופקים- ז'בוטינסקי,/umbracoContent/Images/Branches/NetworkLogos/2.png,153,אבי זקוטו,08-9963944,א,8:00,21:00,ב,8:00,21:00,ג,8:00,21:00,ד,8:00,22:00,ה,8:00,22:00,ו,7:00,14:30,ש,18:45,22:00,אופקים,2,שופרסל דיל,25 זבוטינסקי,/umbracoContent/Images/Branches/DepartmentsLogos/4.png,גרין,,,,,,,,,,,,,,,,,,,
32.14454,34.802798,דיל גלילות רמת השרון,/umbracoContent/Images/Branches/NetworkLogos/2.png,244,ויקטור חסון,03-6993991,א,8:30,22:00,ב,8:30,22:00,ג,8:30,22:00,ד,8:00,23:00,ה,8:00,23:00,ו,7:00,14:00,ש,18:45,22:00,רמת השרון,2,שופרסל דיל,צומת גלילות,,,,,,,,,,,,,,,,,,,,,
31.946748,34.8423917,באר יעקב C&C סניף,/umbracoContent/Images/Branches/NetworkLogos/2.png,156,ישראל אנך,08-9959389,א,6:00,18:00,ב,6:00,18:00,ג,6:00,18:00,ד,6:00,18:00,ה,6:00,18:00,ו,6:00,13:00,,,,באר יעקב,2,שופרסל דיל,2 היוצר,,,,,,,,,,,,,,,,,,,,,
31.824091,35.23737,דיל ירושלים- פסגת זאב,/umbracoContent/Images/Branches/NetworkLogos/2.png,245,נועם ראובן,02-6230212,א,8:00,21:00,ב,8:00,21:00,ג,8:00,21:00,ד,8:00,22:00,ה,8:00,22:00,ו,7:00,14:30,ש,18:45,22:30,ירושלים,2,שופרסל דיל,106 שד' משה דיין,,,,,,,,,,,,,,,,,,,,,
32.5693022,34.9573326,דיל זכרון- המייסדים,/umbracoContent/Images/Branches/NetworkLogos/2.png,142,אמיר פידלמן,04-6390059,א,7:00,21:00,ב,7:00,21:00,ג,7:00,21:00,ד,7:00,21:00,ה,7:00,22:00,ו,7:00,14:30,ש,18:45,22:00,זכרון יעקב,2,שופרסל דיל,2 הדגן,,,,,,,,,,,,,,,,,,,,,
32.81142,34.960105,דיל רמת הנשיא חיפה,/umbracoContent/Images/Branches/NetworkLogos/2.png,159,נטלי שאולוב,046474374,א,7:00,22:00,ב,7:00,22:00,ג,7:00,22:00,ד,7:00,22:00,ה,7:00,22:00,ו,7:00,14:30,ש,18:45,22:30,חיפה,2,שופרסל דיל,55 שלמה המלך,,,,,,,,,,,,,,,,,,,,,
32.95759,35.49865,דיל צפת-  דובק ויצמן,/umbracoContent/Images/Branches/NetworkLogos/2.png,139,יניב כהן,04-6822099,א,8:00,21:00,ב,8:00,22:00,ג,8:00,22:00,ד,8:00,22:00,ה,8:00,22:00,ו,7:00,14:30,,,,צפת,2,שופרסל דיל,20 ויצמן,,,,,,,,,,,,,,,,,,,,,
32.196998,34.877237,דיל רעננה- קניון רננים,/umbracoContent/Images/Branches/NetworkLogos/2.png,151,רונן שלו,09-7469636,א,9:00,22:00,ב,9:00,22:00,ג,9:00,22:00,ד,9:00,22:00,ה,8:00,23:00,ו,7:30,14:00,ש,18:45,22:00,רעננה,2,שופרסל דיל,2 רח.המלאכה,,,,,,,,,,,,,,,,,,,,,
33.2231978,35.5768526,דיל ק.שמונה מצודות,/umbracoContent/Images/Branches/NetworkLogos/2.png,250,אתי שחורי,04-6361638,א,8:00,21:00,ב,8:00,21:00,ג,8:00,21:00,ד,8:00,22:00,ה,8:00,22:00,ו,8:00,14:30,ש,18:45,22:00,קרית שמונה,2,שופרסל דיל,צומת המצודות,,,,,,,,,,,,,,,,,,,,,
31.730963,35.186597,דיל ירושלים- גילה,/umbracoContent/Images/Branches/NetworkLogos/2.png,114,יוסף ממו,02-6768165/166,א,7:30,22:00,ב,7:30,22:00,ג,7:30,22:00,ד,7:30,22:00,ה,7:00,22:30,ו,7:00,14:30,ש,18:45,22:00,ירושלים,2,שופרסל דיל,17 ביה ויצחק,,,,,,,,,,,,,,,,,,,,,
31.266167,34.764197,"דיל ב""ש- נווה מנחם",/umbracoContent/Images/Branches/NetworkLogos/2.png,248,ארז חן,08-6413002/771,א,7:00,21:00,ב,7:00,21:00,ג,7:00,21:00,ד,7:00,21:00,ה,7:00,22:00,ו,7:00,14:30,ש,18:45,22:00,באר שבע,2,שופרסל דיל,15 החשמונאים,,,,,,,,,,,,,,,,,,,,,
32.6098289,35.2960997,דיל עפולה- כורש,/umbracoContent/Images/Branches/NetworkLogos/2.png,251,יהודה דהן,04-6523793,א,8:00,21:00,ב,8:00,21:00,ג,8:00,21:00,ד,8:00,22:00,ה,8:00,22:00,ו,7:30,14:00,ש,18:45,22:00,עפולה,2,שופרסל דיל,5 כורש,,,,,,,,,,,,,,,,,,,,,
32.276264,34.860994,דיל נתניה- פולג,/umbracoContent/Images/Branches/NetworkLogos/2.png,249,מוחמד גרה,09-8357522,א,8:30,22:00,ב,8:30,22:00,ג,8:30,22:00,ד,8:00,22:00,ה,8:00,23:00,ו,7:00,14:30,ש,18:45,22:30,נתניה,2,שופרסל דיל,5 גיבורי ישראל,,,,,,,,,,,,,,,,,,,,,
32.5669162,34.9640343,אקספרס זכרון,/umbracoContent/Images/Branches/NetworkLogos/7.png,147,מידד קילברט,048436448,א,6:30,20:30,ב,6:30,20:30,ג,6:30,20:30,ד,6:30,20:30,ה,6:30,20:30,ו,6:30,15:30,,,,זכרון יעקב,7,שופרסל אקספרס,16 החוחית,,,,,,,,,,,,,,,,,,,,,
32.076176,34.8854532,"שלי פ""ת- גד מכנס",/umbracoContent/Images/Branches/NetworkLogos/1.png,104,יצחק משולם,03-9097811/2,א,7:00,20:00,ב,7:00,20:00,ג,7:00,20:00,ד,7:00,21:00,ה,7:00,21:00,ו,7:00,14:30,,,,פתח תקווה,1,שופרסל שלי,180 רוטשילד,,,,,,,,,,,,,,,,,,,,,
31.2217120,34.8034090,"דיל אקסטרה ב""ש-סולל בונה",/umbracoContent/Images/Branches/NetworkLogos/4.gif,138,ויאציסלב קוטלובסקי,08-6475111,א,9:00,22:00,ב,9:00,22:00,ג,9:00,22:00,ד,9:00,23:00,ה,9:00,24:00,ו,8:00,14:30,ש,18:45,22:00,באר שבע,4,שופרסל דיל אקסטרה,סולל בונה,,,,,,,,,,,,,,,,,,,,,
32.065527,34.792465,"דיל ת""א- יגאל אלון",/umbracoContent/Images/Branches/NetworkLogos/2.png,229,מוחמד עקל,03-5628471,א,8:00,22:00,ב,8:00,22:00,ג,8:00,22:00,ד,8:00,23:00,ה,8:00,23:00,ו,7:30,14:30,ש,18:45,22:00,תל אביב,2,שופרסל דיל,76 יגאל אלון,,,,,,,,,,,,,,,,,,,,,
32.5177591,34.938522,שלי בנימינה - הגביע,/umbracoContent/Images/Branches/NetworkLogos/1.png,228,אברהם שושן,04-6228461,א,7:00,20:30,ב,7:00,20:30,ג,7:00,20:30,ד,7:00,21:00,ה,7:00,21:00,ו,7:00,14:30,,,,בנימינה,1,שופרסל שלי,1 הגביע,,,,,,,,,,,,,,,,,,,,,
31.8187290,34.6622750,דיל אקסטרה  אשדוד- הבושם,/umbracoContent/Images/Branches/NetworkLogos/4.gif,166,גבריאל תורג'מן,08-8634400,א,9:00,22:00,ב,9:00,22:00,ג,9:00,22:00,ד,9:00,23:00,ה,9:00,24:00,ו,8:00,14:30,ש,18:45,22:00,אשדוד,4,שופרסל דיל אקסטרה,הבושם 7 א.ת. קלה,,,,,,,,,,,,,,,,,,,,,
31.986408,34.765041,"דיל ראשל""צ- הלח""י",/umbracoContent/Images/Branches/NetworkLogos/2.png,167,דליה חיימוביץ,03-9513563,א,8:00,22:00,ב,8:00,22:00,ג,8:00,22:00,ד,8:00,22:00,ה,8:00,23:00,ו,7:00,14:30,ש,18:45,22:00,ראשון לציון,2,שופרסל דיל,"8 הלח""י",,,,,,,,,,,,,,,,,,,,,
31.9336026,34.8882347,דיל רמלה לוד- הצופית,/umbracoContent/Images/Branches/NetworkLogos/2.png,203,איליה מולייב,08-9249141/215,א,9:00,22:00,ב,9:00,22:00,ג,9:00,22:00,ד,9:00,22:00,ה,9:00,23:00,ו,7:00,14:30,ש,18:45,22:00,רמלה,2,שופרסל דיל,40 הצופית,,,,,,,,,,,,,,,,,,,,,
32.8157203,35.045743,חיפה C&C סניף,/umbracoContent/Images/Branches/NetworkLogos/2.png,157,גיא ביטון,046258801,א,6:00,18:00,ב,6:00,18:00,ג,6:00,18:00,ד,6:00,18:00,ה,6:00,18:00,ו,6:00,13:00,,,,חיפה,2,שופרסל דיל,9 יגיע כפיים,,,,,,,,,,,,,,,,,,,,,
32.9051648,35.2841909,דיל כרמיאל,/umbracoContent/Images/Branches/NetworkLogos/2.png,226,איזבלה יקיבובסקי,046276788,א,7:00,21:00,ב,7:00,21:00,ג,7:00,21:00,ד,7:00,22:00,ה,7:00,22:00,ו,7:00,14:30,,,,כרמיאל,2,שופרסל דיל,2 ההגנה,,,,,,,,,,,,,,,,,,,,,
32.807944,35.076964,דיל-איקאה קרית אתא,/umbracoContent/Images/Branches/NetworkLogos/2.png,227,שחר כהן,04-6023441,א,8:00,22:00,ב,8:00,22:00,ג,8:00,22:00,ד,8:00,23:00,ה,8:00,23:00,ו,7:00,14:30,ש,18:45,22:00,קרית אתא,2,שופרסל דיל,52 דרך חיפה,,,,,,,,,,,,,,,,,,,,,
31.890305,34.965217,דיל מודיעין- ישפרו סנטר,/umbracoContent/Images/Branches/NetworkLogos/2.png,134,חאלד מרעי,08-9737111,א,8:00,22:00,ב,8:00,22:00,ג,8:00,22:00,ד,8:00,23:00,ה,8:00,24:00,ו,7:00,14:30,ש,18:45,22:00,מודיעין,2,שופרסל דיל,שדרות המלאכות,,,,,,,,,,,,,,,,,,,,,
31.5208618,34.5943774,דיל שדרות- הפלדה,/umbracoContent/Images/Branches/NetworkLogos/2.png,163,קרן שדאדי,08-6898767,א,7:00,22:00,ב,7:00,22:00,ג,7:00,22:00,ד,7:00,22:00,ה,7:00,22:00,ו,7:00,14:30,ש,18:45,22:00,שדרות,2,שופרסל דיל,8 סמטת הפלדה,,,,,,,,,,,,,,,,,,,,,
32.120697,34.792907,"אקספרס ת""א רודנסקי",/umbracoContent/Images/Branches/NetworkLogos/7.png,150, ,035466474,א,6:30,20:00,ב,6:30,20:00,ג,6:30,20:00,ד,6:30,20:00,ה,6:30,20:00,ו,6:30,15:30,,,,תל אביב,7,שופרסל אקספרס,5 רודנסקי,,,,,,,,,,,,,,,,,,,,,
32.845566,35.091021,דיל קריון- דרך עכו,/umbracoContent/Images/Branches/NetworkLogos/2.png,195,יצחק וייס,04-8759986,א,8:00,22:00,ב,8:00,22:00,ג,8:00,22:00,ד,8:00,23:00,ה,8:00,23:00,ו,7:00,14:30,ש,18:45,22:00,קרית ביאליק,2,שופרסל דיל,192  דרך עכו,,,,,,,,,,,,,,,,,,,,,
32.928751,35.325401,דיל כרמיאל- אזור התעשיה,/umbracoContent/Images/Branches/NetworkLogos/2.png,211,מוחמד עטייה,04-9985358,א,9:00,22:00,ב,9:00,22:00,ג,9:00,22:00,ד,9:00,22:00,ה,9:00,23:00,ו,7:00,14:30,ש,18:45,22:00,כרמיאל,2,שופרסל דיל,6 מעלה כמון,,,,,,,,,,,,,,,,,,,,,
31.996498,34.772683,שלי חולון- רבינוביץ,/umbracoContent/Images/Branches/NetworkLogos/1.png,247,חנה פינטו,03-5521328,א,8:00,20:00,ב,8:00,20:00,ג,8:00,20:00,ד,8:00,20:00,ה,8:00,20:00,ו,7:00,14:30,,,,חולון,1,שופרסל שלי,58 רבינוביץ,,,,,,,,,,,,,,,,,,,,,
31.282656,34.799092,"'דיל רמות ב""ש ב",/umbracoContent/Images/Branches/NetworkLogos/2.png,222,יוסף כהן,089240669,א,7:30,21:00,ב,7:30,21:00,ג,7:30,21:00,ד,7:30,21:00,ה,7:30,22:00,ו,7:30,14:30,ש,18:45,22:00,באר שבע,2,שופרסל דיל,28 הערים התאומות,,,,,,,,,,,,,,,,,,,,,
31.784082,34.633404,שלי אשדוד- כינרת,/umbracoContent/Images/Branches/NetworkLogos/1.png,168,חן חיימי,08-8646411/7006,א,7:00,21:00,ב,7:00,21:00,ג,7:00,21:00,ד,7:00,21:00,ה,7:00,22:00,ו,7:00,14:30,,,,אשדוד,1,שופרסל שלי,71 כנרת,,,,,,,,,,,,,,,,,,,,,
29.56423,34.945128,דיל אילת נחל אורה,/umbracoContent/Images/Branches/NetworkLogos/2.png,208,דורון יעקבי,088587868,א,7:30,22:00,ב,7:30,22:00,ג,7:30,22:00,ד,7:30,22:00,ה,7:30,22:00,ו,7:00,14:30,,,,אילת,2,שופרסל דיל,52 ירושלים השלמה,,,,,,,,,,,,,,,,,,,,,
32.779364,35.516988,יש חסד טבריה עלית-לב האג,/umbracoContent/Images/Branches/NetworkLogos/6.png,111,יוסף זאב וינרייך,04-6735303,א,7:30,22:00,ב,7:30,22:00,ג,7:30,22:00,ד,7:30,23:00,ה,7:30,23:00,ו,7:30,15:00,,,,טבריה,6,יש,1117 הנשיא ויצמן,,,,,,,,,,,,,,,,,,,,,
31.231039,34.7681664,"אקספרס ב""ש אפרים",/umbracoContent/Images/Branches/NetworkLogos/7.png,169,אוסנת חטב,08-6329049,א,7:00,22:00,ב,7:00,22:00,ג,7:00,22:00,ד,7:00,24:00,ה,7:00,24:00,ו,7:00,15:30,ש,18:45,23:30,באר שבע,7,שופרסל אקספרס,20 אפרים לרון,,,,,,,,,,,,,,,,,,,,,
32.622979,35.315402,דיל עפולה- יצחק רבין,/umbracoContent/Images/Branches/NetworkLogos/2.png,218,שלומי כהן,04-6425180,א,8:00,22:00,ב,8:00,22:00,ג,8:00,22:00,ד,8:00,22:00,ה,8:00,23:00,ו,7:00,14:00,ש,18:45,22:00,עפולה,2,שופרסל דיל,5 שד' יצחק רבין,,,,,,,,,,,,,,,,,,,,,
32.400506,34.90247,דיל עמק חפר- אזור תעשיה,/umbracoContent/Images/Branches/NetworkLogos/2.png,91,אלון וינרב,04-6247773,א,9:00,21:00,ב,9:00,21:00,ג,9:00,21:00,ד,9:00,21:00,ה,9:00,22:00,ו,7:00,14:30,,,,עמק חפר,2,שופרסל דיל,א.ת. עמק חפר,,,,,,,,,,,,,,,,,,,,,
31.904833,35.005853,אקספרס מודיעין דם המכבים,/umbracoContent/Images/Branches/NetworkLogos/7.png,223,יהונתן בן ססי,08-6269667,א,7:00,20:30,ב,7:00,20:30,ג,7:00,20:30,ד,7:00,20:30,ה,7:00,20:30,ו,6:30,15:30,,,,מודיעין,7,שופרסל אקספרס,28 דם המכבים,,,,,,,,,,,,,,,,,,,,,
31.953787,34.819826,"שלי ראשל""צ- מזרח",/umbracoContent/Images/Branches/NetworkLogos/1.png,193,ולרי ביטון,03-9400592,א,7:00,21:00,ב,7:00,21:00,ג,7:00,21:00,ד,7:00,21:00,ה,7:00,22:00,ו,6:30,14:30,,,,ראשון לציון,1,שופרסל שלי,50 שד' יעקב,,,,,,,,,,,,,,,,,,,,,
31.979506,34.760721,"אקספרס ראשל""צ-נווה דקלים",/umbracoContent/Images/Branches/NetworkLogos/7.png,224,שמעון כהן,03-6123086,א,6:30,21:00,ב,6:30,21:00,ג,6:30,21:00,ד,6:30,21:00,ה,6:30,21:00,ו,6:30,15:30,,,,ראשון לציון,7,שופרסל אקספרס,44 נווה דקלים,,,,,,,,,,,,,,,,,,,,,
32.7948636,34.9980822,שלי חיפה- ורדיה,/umbracoContent/Images/Branches/NetworkLogos/1.png,212,עירית סממה,04-8247645,א,7:00,21:00,ב,7:00,21:00,ג,7:00,21:00,ד,7:00,21:00,ה,7:00,21:00,ו,7:00,14:30,,,,חיפה,1,שופרסל שלי,10 ורדיה,,,,,,,,,,,,,,,,,,,,,
32.172327,34.928496,"דיל גזית כ""ס- ויצמן",/umbracoContent/Images/Branches/NetworkLogos/2.png,259,ניר אלתגר,09-7653000,א,8:00,22:00,ב,8:00,22:00,ג,8:00,22:00,ד,8:00,22:00,ה,8:00,23:00,ו,7:00,14:30,ש,18:45,22:00,כפר סבא,2,שופרסל דיל,G ויצמן 300 מתחם,,,,,,,,,,,,,,,,,,,,,
31.976056,34.811256,"דיל ראשל""צ- שמוטקין",/umbracoContent/Images/Branches/NetworkLogos/2.png,210,שמואל לוי,03-9568848,א,8:00,22:00,ב,8:00,22:00,ג,8:00,22:00,ד,8:00,22:00,ה,8:00,23:00,ו,7:00,14:30,ש,18:45,22:00,ראשון לציון,2,שופרסל דיל,30 שמוטקין,,,,,,,,,,,,,,,,,,,,,
29.559861,34.9507476,שלי התמרים אילת,/umbracoContent/Images/Branches/NetworkLogos/1.png,266,לינה בוטביגה,08-6644332,א,7:30,21:30,ב,7:30,21:30,ג,7:30,21:30,ד,7:30,21:30,ה,7:30,22:00,ו,7:00,14:30,,,,אילת,1,שופרסל שלי,37 שד' התמרים,,,,,,,,,,,,,,,,,,,,,
32.792451,34.987571,אקספרס חיפה יותם,/umbracoContent/Images/Branches/NetworkLogos/7.png,353,אמיר שלום,048343366,א,6:30,20:00,ב,6:30,20:00,ג,6:30,20:00,ד,6:30,20:00,ה,6:30,20:00,ו,6:30,15:30,,,,חיפה,7,שופרסל אקספרס,20 יותם,,,,,,,,,,,,,,,,,,,,,
31.7786000,34.6360660,דיל אשדוד- שבט לוי,/umbracoContent/Images/Branches/NetworkLogos/2.png,92,ארז חגי,08-8550112,א,7:00,21:00,ב,7:00,21:00,ג,7:00,21:00,ד,7:00,21:00,ה,7:00,22:00,ו,7:00,14:30,,,,אשדוד,2,שופרסל דיל,3 שבט ראובן,,,,,,,,,,,,,,,,,,,,,
32.081424,34.789203,שלי תל אביב-איכילוב,/umbracoContent/Images/Branches/NetworkLogos/1.png,117,אבינועם טלר,03-6091193,א,8:00,21:00,ב,8:00,21:00,ג,8:00,21:00,ד,8:00,21:00,ה,8:00,22:00,ו,7:00,14:30,,,,תל אביב,1,שופרסל שלי,14 ויצמן,,,,,,,,,,,,,,,,,,,,,
32.7660866,34.961933,אקספרס טירת הכרמל,/umbracoContent/Images/Branches/NetworkLogos/7.png,127,אושרי מאור,04-8748686,א,6:30,20:30,ב,6:30,20:30,ג,6:30,20:30,ד,6:30,20:30,ה,6:30,20:30,ו,6:30,15:30,,,,טירת הכרמל,7,שופרסל אקספרס,1 הדולפין,,,,,,,,,,,,,,,,,,,,,
32.0655882,34.8474881,אקספרס קריית אונו,/umbracoContent/Images/Branches/NetworkLogos/7.png,154,אריק סומברג,03-6059828,א,6:30,20:00,ב,6:30,20:00,ג,6:30,20:00,ד,6:30,20:00,ה,6:30,20:00,ו,6:30,15:30,,,,קריית אונו,7,שופרסל אקספרס,1 ההגנה,,,,,,,,,,,,,,,,,,,,,
32.0661423,34.8265724,שלי רמת גן- הירדן,/umbracoContent/Images/Branches/NetworkLogos/1.png,160,חגי דלאל,03-5742712,א,7:00,21:00,ב,7:00,21:00,ג,7:00,21:00,ד,7:00,21:00,ה,7:00,22:00,ו,7:00,14:30,,,,רמת גן,1,שופרסל שלי,29 הירדן,,,,,,,,,,,,,,,,,,,,,
32.025667,34.89922,דיל יהוד- אלטלף,/umbracoContent/Images/Branches/NetworkLogos/2.png,205,אלכס ויינשטיין,03-5362426,א,8:00,22:00,ב,8:00,22:00,ג,8:00,22:00,ד,8:00,23:30,ה,8:00,23:30,ו,7:00,14:30,ש,18:45,22:00,יהוד,2,שופרסל דיל,אלטלף 4 א.ת יהוד,,,,,,,,,,,,,,,,,,,,,
32.025225,34.858498,יש  אור יהודה-אליהו סעדו,/umbracoContent/Images/Branches/NetworkLogos/6.png,207,ישראל אליהו עובדיה,03-6031399,א,10:00,20:00,ב,10:00,20:00,ג,10:00,20:00,ד,10:00,20:00,ה,10:00,20:00,ו,8:00,14:30,,,,אור יהודה,6,יש,128 אליהו סעדון,,,,,,,,,,,,,,,,,,,,,
31.6875112,34.5793385,דיל אשקלון- רוטשילד,/umbracoContent/Images/Branches/NetworkLogos/2.png,209,גיא לוזון,08-6715994/85,א,7:00,21:00,ב,7:00,21:00,ג,7:00,21:00,ד,7:00,21:00,ה,7:00,22:00,ו,7:00,14:30,,,,אשקלון,2,שופרסל דיל,8 אדמונד רוטשילד,,,,,,,,,,,,,,,,,,,,,
31.75257,35.18135,אקספרס הדישון ירושלים,/umbracoContent/Images/Branches/NetworkLogos/7.png,217,איליה איסטומין,02-9404429,א,6:30,21:00,ב,6:30,21:00,ג,6:30,21:00,ד,6:30,21:00,ה,6:30,21:00,ו,6:45,15:30,,,,ירושלים,7,שופרסל אקספרס,21 הדישון,,,,,,,,,,,,,,,,,,,,,
32.078684,34.837492,יש חסד בני ברק- עזרא,/umbracoContent/Images/Branches/NetworkLogos/6.png,219,מרדכי שמואל וינגורט,03-6203832,א,7:30,23:00,ב,7:30,23:00,ג,7:30,23:00,ד,7:30,24:00,ה,7:30,24:00,ו,7:30,14:30,ש,21:00,24:00,בני ברק,6,יש,21 עזרא,,,,,,,,,,,,,,,,,,,,,
32.1774645,34.9015325,"שלי כ""ס- ויצמן",/umbracoContent/Images/Branches/NetworkLogos/1.png,230,מוחמד עתאמנה,09-7428064,א,7:30,20:00,ב,7:30,20:00,ג,7:30,20:00,ד,7:30,20:00,ה,7:30,20:00,ו,7:00,14:30,,,,כפר סבא,1,שופרסל שלי,29 ויצמן,,,,,,,,,,,,,,,,,,,,,
32.1940393,34.850563,אקספרס רעננה- רבקה גרובר,/umbracoContent/Images/Branches/NetworkLogos/7.png,231,נאור חריר,09-7711755,א,7:00,21:00,ב,7:00,21:00,ג,7:00,21:00,ד,7:00,21:00,ה,7:00,21:00,ו,7:00,15:30,,,,רעננה,7,שופרסל אקספרס,7  רבקה גובר,,,,,,,,,,,,,,,,,,,,,
32.962515,35.5166479,שלי  צפת- מ.מסחר רמת רזי,/umbracoContent/Images/Branches/NetworkLogos/1.png,232,יוסי חורי,04-6924343,א,6:45,19:30,ב,6:45,19:30,ג,6:45,19:30,ד,6:45,19:30,ה,6:45,19:30,ו,6:45,14:30,,,,צפת,1,שופרסל שלי,רמת רזים מרכז מס,,,,,,,,,,,,,,,,,,,,,
31.3964,34.7567,יש חסד רסידו ב.שמש,/umbracoContent/Images/Branches/NetworkLogos/6.png,234,ניסים שבבו,029410993,א,7:30,23:00,ב,7:30,23:00,ג,7:30,23:00,ד,7:30,24:00,ה,7:30,24:00,ו,7:30,14:30,ש,21:00,24:00,בית שמש,6,יש,1 נהר הירדן,,,,,,,,,,,,,,,,,,,,,
29.5447195,34.9295839,אקספרס אילת שחמון,/umbracoContent/Images/Branches/NetworkLogos/7.png,236,מיכאל בן דויד,08-8678766,א,6:30,23:00,ב,6:30,23:00,ג,6:30,23:00,ד,6:30,23:00,ה,6:30,23:00,ו,6:30,15:30,ש,18:45,23:00,אילת,7,שופרסל אקספרס,310 ששת הימים,,,,,,,,,,,,,,,,,,,,,
31.9414022,34.832154,דיל באר יעקב,/umbracoContent/Images/Branches/NetworkLogos/2.png,238,יהורם דיין,089188916,א,8:00,21:00,ב,8:00,21:00,ג,8:00,21:00,ד,8:00,22:00,ה,8:00,22:00,ו,7:00,14:30,ש,18:45,22:00,באר יעקב,2,שופרסל דיל,17 שא נס,,,,,,,,,,,,,,,,,,,,,
32.0510689,34.7537326,אקספרס יפו- הדרור,/umbracoContent/Images/Branches/NetworkLogos/7.png,239,בילל גראבלי,03-6811813,א,7:00,22:00,ב,7:00,22:00,ג,7:00,22:00,ד,7:00,22:00,ה,7:00,22:00,ו,7:00,15:30,,,,תל אביב,7,שופרסל אקספרס,2 הדרור,,,,,,,,,,,,,,,,,,,,,
31.3965405,34.7582123,דיל רהט,/umbracoContent/Images/Branches/NetworkLogos/2.png,240,נעים ג'בור,08-9917184/5,א,8:00,19:00,ב,8:00,19:00,ג,8:00,19:00,ד,8:00,19:00,ה,8:00,19:00,ו,8:00,14:30,ש,18:45,22:00,רהט,2,שופרסל דיל,עומר אלמוכתאר,,,,,,,,,,,,,,,,,,,,,
32.103036,34.834797,דיל בני ברק איילון,/umbracoContent/Images/Branches/NetworkLogos/2.png,241,טנגיז זיזוב,03-6192605,א,8:00,23:00,ב,8:00,23:00,ג,8:00,23:00,ד,8:00,23:00,ה,8:00,24:00,ו,7:00,14:30,ש,18:45,22:00,בני ברק,2,שופרסל דיל,"28 הלח""י",,,,,,,,,,,,,,,,,,,,,
32.088314,34.859683,"דיל  פ""ת- יכין סנטר",/umbracoContent/Images/Branches/NetworkLogos/2.png,290,יורם כהן,03-9235299,א,8:00,22:30,ב,8:00,22:30,ג,8:00,22:30,ד,8:00,23:00,ה,8:00,24:00,ו,7:00,14:30,ש,18:45,22:00,פתח תקווה,2,שופרסל דיל,17 יצחק רבין,,,,,,,,,,,,,,,,,,,,,
31.6038987,34.7578512,דיל קרית גת- מלכי ישראל,/umbracoContent/Images/Branches/NetworkLogos/2.png,214,רותי זאנו,08-6880699,א,8:00,22:00,ב,8:00,22:00,ג,8:00,22:00,ד,8:00,22:00,ה,8:00,23:00,ו,7:00,14:30,ש,18:45,22:00,קרית גת,2,שופרסל דיל,178 מלכי ישראל,,,,,,,,,,,,,,,,,,,,,
32.1269444,34.8319109,"אקספרס מקס ברוד ת""א",/umbracoContent/Images/Branches/NetworkLogos/7.png,263,עומרי פורת,03-9401821,א,6:30,21:00,ב,6:30,21:00,ג,6:30,21:00,ד,6:30,21:00,ה,6:30,21:00,ו,6:30,15:30,,,,תל אביב,7,שופרסל אקספרס,43 מקס ברוד,,,,,,,,,,,,,,,,,,,,,
32.0754274,34.7762187,"אקספרס ת""א- קינג ג'ורג",/umbracoContent/Images/Branches/NetworkLogos/7.png,354,אבי יוספוב,03-5253571,א,6:30,23:00,ב,6:30,23:00,ג,6:30,23:00,ד,6:30,23:00,ה,6:30,23:00,ו,6:30,15:30,ש,18:45,23:00,תל אביב,7,שופרסל אקספרס,58 'קינג ג'ורג,,,,,,,,,,,,,,,,,,,,,
32.121941,34.81673,"גרין ת""א- אהרון בקר",/umbracoContent/Images/Branches/NetworkLogos/8.png,355, ,03-6449363,א,8:00,20:00,ב,8:00,20:00,ג,8:00,20:00,ד,8:00,20:00,ה,8:00,20:00,ו,8:00,14:15,,,,תל אביב,8,גרין,8 הארון בקר,,,,,,,,,,,,,,,,,,,,,
32.287753,34.945093,שלי צורן קדימה- לב השרון,/umbracoContent/Images/Branches/NetworkLogos/1.png,357,שמעון אביטבול,098940023,א,7:00,20:00,ב,7:00,20:00,ג,7:00,20:00,ד,7:00,20:30,ה,7:00,21:00,ו,7:00,14:30,,,,צורן קדימה,1,שופרסל שלי,422 דרך לב השרון,,,,,,,,,,,,,,,,,,,,,
32.986924,35.705609,דיל קצרין- חרמון,/umbracoContent/Images/Branches/NetworkLogos/2.png,267,לודמילה אנטונצ'נקו,04-6850518-9,א,8:00,21:00,ב,8:00,21:00,ג,8:00,21:00,ד,8:00,21:00,ה,8:00,22:00,ו,7:00,14:30,,,,קצרין,2,שופרסל דיל,.חרמון 7 א ת,,,,,,,,,,,,,,,,,,,,,
32.7897224,35.0105696,דיל חיפה- גרנד קניון,/umbracoContent/Images/Branches/NetworkLogos/2.png,359,דוד ג'אנו,04-8120090,א,9:00,21:00,ב,9:00,21:00,ג,9:00,21:00,ד,9:00,22:00,ה,9:00,22:00,ו,7:30,14:30,ש,19:00,22:45,חיפה,2,שופרסל דיל,54 שמחה גולן,,,,,,,,,,,,,,,,,,,,,
31.8803278,34.814694,שלי רחובות- יעקובי,/umbracoContent/Images/Branches/NetworkLogos/1.png,271,ליאת כהן,08-9496155-6,א,7:00,21:00,ב,7:00,21:00,ג,7:00,21:00,ד,7:00,21:00,ה,7:00,22:00,ו,7:00,14:30,,,,רחובות,1,שופרסל שלי,1 פנחס בן דוד,,,,,,,,,,,,,,,,,,,,,
32.439387,34.881356,דיל גבעת אולגה-הרב ניסים,/umbracoContent/Images/Branches/NetworkLogos/2.png,350,עאהד נאצר,04-6220073,א,7:00,21:00,ב,7:00,21:00,ג,7:00,21:00,ד,7:00,21:00,ה,7:00,22:00,ו,7:00,14:30,,,,גבעת אולגה,2,שופרסל דיל,1 ברוך בוארון,,,,,,,,,,,,,,,,,,,,,
31.9586233,34.8082691,"אקספרס מאירוביץ ראשל""צ",/umbracoContent/Images/Branches/NetworkLogos/7.png,360,גאמי חלבי,03-9670524,א,6:00,20:30,ב,6:00,20:30,ג,6:00,20:30,ד,6:00,20:30,ה,6:00,20:30,ו,6:00,15:30,,,,ראשון לציון,7,שופרסל אקספרס,17 מאירוביץ,,,,,,,,,,,,,,,,,,,,,
32.666227,35.238762,דיל מגדל העמק- א ת דרומי,/umbracoContent/Images/Branches/NetworkLogos/2.png,361,מילה רובין,04-6440874,א,8:00,21:00,ב,8:00,21:00,ג,8:00,21:00,ד,8:00,22:00,ה,8:00,22:00,ו,8:00,14:30,ש,18:45,22:00,מגדל העמק,2,שופרסל דיל,אזור התעשייה ב,,,,,,,,,,,,,,,,,,,,,
31.773386,35.2223569,אקספרס קרן היסוד ירושלים,/umbracoContent/Images/Branches/NetworkLogos/7.png,362,ליאור פפרברג,02-5872144,א,6:30,23:00,ב,6:30,23:00,ג,6:30,23:00,ד,6:30,23:00,ה,6:30,23:00,ו,6:30,15:30,ש,18:45,23:00,ירושלים,7,שופרסל אקספרס,27 קרן היסוד,,,,,,,,,,,,,,,,,,,,,
32.474678,34.9952097,שלי פרדס חנה כרכור- קדמה,/umbracoContent/Images/Branches/NetworkLogos/1.png,365,מחמוד זבידאת,04-6230221,א,7:00,20:00,ב,7:00,20:00,ג,7:00,20:00,ד,7:00,20:00,ה,7:00,20:00,ו,7:00,14:30,,,,כרכור,1,שופרסל שלי,32 הקדמה,,,,,,,,,,,,,,,,,,,,,
32.9954033,35.2772436,שלי כפר ורדים- מרכז מסחר,/umbracoContent/Images/Branches/NetworkLogos/1.png,366,אסתר סיום,04-9978018,א,7:00,20:00,ב,7:00,20:00,ג,7:00,20:00,ד,7:00,20:00,ה,7:00,20:00,ו,7:00,14:30,,,,כפר ורדים,1,שופרסל שלי,מרכז מסחרי כפר ו,,,,,,,,,,,,,,,,,,,,,
32.7740186,35.0300742,אקספרס-נשר מרגנית,/umbracoContent/Images/Branches/NetworkLogos/7.png,368,אלימור ביטון,04-6308537,א,7:00,21:00,ב,7:00,21:00,ג,7:00,21:00,ד,7:00,21:00,ה,7:00,21:00,ו,7:00,15:30,,,,חיפה,7,שופרסל אקספרס,1 נשר המרגנית,,,,,,,,,,,,,,,,,,,,,
31.895614,34.810659,גרין רחובות- יעקב,/umbracoContent/Images/Branches/NetworkLogos/8.png,440,אודי בוזגלו,08-9364732,א,9:00,20:00,ב,9:00,20:00,ג,9:00,20:00,ד,9:00,20:00,ה,9:00,20:00,ו,9:00,14:15,,,,רחובות,8,גרין,3 יעקב,,,,,,,,,,,,,,,,,,,,,
32.068058,34.776825,"גרין ת""א- שינקין",/umbracoContent/Images/Branches/NetworkLogos/8.png,441,דודי בורוכוב,03-6868406,א,9:00,20:00,ב,9:00,20:00,ג,9:00,20:00,ד,9:00,20:00,ה,9:00,20:00,ו,9:00,14:15,,,,תל אביב,8,גרין,59 שינקין,,,,,,,,,,,,,,,,,,,,,
31.2538453,34.7973745,"אקספרס.ב""ש אביסרור",/umbracoContent/Images/Branches/NetworkLogos/7.png,444,כפיר לוי,08-8673537,א,6:30,21:00,ב,6:30,21:00,ג,6:30,21:00,ד,6:30,21:00,ה,6:30,21:00,ו,6:30,15:30,,,,באר שבע,7,שופרסל אקספרס,8 יעקב כהן,,,,,,,,,,,,,,,,,,,,,
31.8970083,34.8183562,אקספרס רחובות יעקב,/umbracoContent/Images/Branches/NetworkLogos/7.png,445,לילך אסור,089976711,א,6:30,21:00,ב,6:30,21:00,ג,6:30,21:00,ד,6:30,21:00,ה,6:30,21:00,ו,6:30,15:30,ש,18:45,22:00,רחובות,7,שופרסל אקספרס,41 יעקב,,,,,,,,,,,,,,,,,,,,,
31.791822,35.203329,שערי רווחה,/umbracoContent/Images/Branches/NetworkLogos/3.png,448,נתי מרגלית,02-5001254,א,10:00,24:00,ב,10:00,24:00,ג,10:00,24:00,ד,10:00,24:00,ה,10:00,1:00,ו,7:00,15:30,ש,0,24:00,ירושלים,3,שערי רווחה,25 ירמיהו,,,,,,,,,,,,,,,,,,,,,
31.8043185,34.7890403,אקספרס גדרה הצעירה,/umbracoContent/Images/Branches/NetworkLogos/7.png,478,בטי שלמה,086780866,א,7:00,21:00,ב,7:00,21:00,ג,7:00,21:00,ד,7:00,21:00,ה,7:00,21:00,ו,7:00,15:30,,,,גדרה,7,שופרסל אקספרס,37 ציונה צרפת,,,,,,,,,,,,,,,,,,,,,
32.182753,34.874146,אקספרס רעננה בר אילן,/umbracoContent/Images/Branches/NetworkLogos/7.png,479,אמיר עוזר,097725373,א,6:30,20:30,ב,6:30,20:30,ג,6:30,20:30,ד,6:30,20:30,ה,6:30,20:30,ו,6:30,15:30,,,,רעננה,7,שופרסל אקספרס,24 בר אילן,,,,,,,,,,,,,,,,,,,,,
32.079155,34.769003,אקספרס תל אביב מנדלי,/umbracoContent/Images/Branches/NetworkLogos/7.png,481,שלומי יאגיס,036204779,א,6:30,21:00,ב,6:30,21:00,ג,6:30,21:00,ד,6:30,21:00,ה,6:30,21:00,ו,6:30,15:30,,,,תל אביב,7,שופרסל אקספרס,5מנדלי מוכרספרים,,,,,,,,,,,,,,,,,,,,,
31.8080626,34.6429464,בלה אשדוד,/umbracoContent/Images/Branches/NetworkLogos/5.gif,485,ורד חג'ג',0525096859,א,9:00,20:00,ב,9:00,20:00,ג,9:00,20:00,ד,9:00,20:00,ה,9:00,20:00,ו,8:30,14:00,,,,אשדוד,5,BE,1 רוגוזין,/umbracoContent/Images/Branches/DepartmentsLogos/logos_default.png,,/umbracoContent/Images/Branches/DepartmentsLogos/logos_default.png,,גישה נגישה,/umbracoContent/Images/Branches/DepartmentsLogos/10.png,/umbracoContent/Images/Branches/DepartmentsLogos/logos_default.png,,/umbracoContent/Images/Branches/DepartmentsLogos/logos_default.png,/umbracoContent/Images/Branches/DepartmentsLogos/logos_default.png,/umbracoContent/Images/Branches/DepartmentsLogos/logos_default.png,/umbracoContent/Images/Branches/DepartmentsLogos/logos_default.png,/umbracoContent/Images/Branches/DepartmentsLogos/logos_default.png,חניה לבעלי מוגבלות,מערכת עזר לשמע,"קופ""ח מכבי","קופ""ח מאוחדת","קופ""ח לאומית",Chill,Pretty,Catrice
31.9589758,34.7994432,שלי ברניצקי ראשון,/umbracoContent/Images/Branches/NetworkLogos/1.png,371,שמעון סיסו,03-9219927,א,7:00,20:00,ב,7:00,20:00,ג,7:00,20:00,ד,7:00,21:00,ה,7:00,21:00,ו,7:00,14:30,,,,ראשון לציון,1,שופרסל שלי,13 נתן ברניצקי,,,,,,,,,,,,,,,,,,,,,
32.0184639,34.751033,אקספרס בת ים- חשמונאים,/umbracoContent/Images/Branches/NetworkLogos/7.png,372,רומן חיימוביץ,03-6593171,א,7:00,20:30,ב,7:00,20:30,ג,7:00,20:30,ד,7:00,20:30,ה,7:00,21:00,ו,7:00,15:30,,,,בת ים,7,שופרסל אקספרס,41 החשמונאים,,,,,,,,,,,,,,,,,,,,,
32.162601,34.849861,שלי הרצליה- הבנים,/umbracoContent/Images/Branches/NetworkLogos/1.png,374,ניקולאי פרונשטיין,09-9571202,א,7:00,20:00,ב,7:00,20:00,ג,7:00,20:00,ד,7:00,20:00,ה,7:00,21:00,ו,7:00,14:30,,,,הרצליה,1,שופרסל שלי,46 הבנים,,,,,,,,,,,,,,,,,,,,,
32.1791162,34.9206905,"אקספרס כ""ס- הגליל",/umbracoContent/Images/Branches/NetworkLogos/7.png,375,יעקב דוידוב,09-7678414,א,7:00,20:30,ב,7:00,20:30,ג,7:00,20:30,ד,7:00,20:30,ה,7:00,20:30,ו,7:00,15:30,,,,כפר סבא,7,שופרסל אקספרס,58 הגליל,,,,,,,,,,,,,,,,,,,,,
32.1814438,34.8635072,אקספרס רעננה- משה דיין,/umbracoContent/Images/Branches/NetworkLogos/7.png,376,אבי שחרור,09-7751288,א,6:30,20:30,ב,6:30,20:30,ג,6:30,20:30,ד,6:30,20:30,ה,6:30,21:00,ו,6:30,15:30,,,,רעננה,7,שופרסל אקספרס,8 משה דיין,,,,,,,,,,,,,,,,,,,,,
31.7655765,35.149815,אקספרס ירושלים- הדסה,/umbracoContent/Images/Branches/NetworkLogos/7.png,377,ישראל אייזן,02-6437627,א,7:00,21:00,ב,7:00,21:00,ג,7:00,21:00,ד,7:00,21:00,ה,7:00,21:00,ו,7:00,15:30,,,,ירושלים,7,שופרסל אקספרס,בית חולים הדסה,,,,,,,,,,,,,,,,,,,,,
32.0753268,34.8036569,אקספרס גבעתיים- כצנלסון,/umbracoContent/Images/Branches/NetworkLogos/7.png,379,ארז גל,03-5732353,א,6:30,22:00,ב,6:30,22:00,ג,6:30,22:00,ד,6:30,22:00,ה,6:30,22:00,ו,6:30,15:30,ש,18:45,22:00,גבעתיים,7,שופרסל אקספרס,19 כצנלסון,,,,,,,,,,,,,,,,,,,,,
32.0715803,34.7800768,"אקספרס ת""א- מרמורק",/umbracoContent/Images/Branches/NetworkLogos/7.png,380,אופיר אזולאי,03-5661431,א,6:30,23:30,ב,6:30,23:30,ג,6:30,23:30,ד,6:30,23:30,ה,6:30,23:30,ו,6:30,15:30,ש,18:45,23:30,תל אביב,7,שופרסל אקספרס,10 מרמורק,,,,,,,,,,,,,,,,,,,,,
32.0803716,34.8751981,"אקספרס פ""ת- היבנר",/umbracoContent/Images/Branches/NetworkLogos/7.png,382,רפי סיני,03-9217050,א,7:00,20:00,ב,7:00,20:00,ג,7:00,20:00,ד,7:00,20:00,ה,7:00,21:00,ו,7:00,15:30,,,,פתח תקווה,7,שופרסל אקספרס,29 היבנר,,,,,,,,,,,,,,,,,,,,,
32.1000866,34.786683,"אקספרס מאיר יערי ת""א",/umbracoContent/Images/Branches/NetworkLogos/7.png,385,יוסי דאלי,037780676,א,6:45,21:00,ב,6:45,21:00,ג,6:45,21:00,ד,6:45,21:00,ה,6:45,21:00,ו,6:30,15:30,,,,תל אביב,7,שופרסל אקספרס,27 מאיר יערי,,,,,,,,,,,,,,,,,,,,,
32.8330647,34.9855416,"אקספרס רמב""ם חיפה",/umbracoContent/Images/Branches/NetworkLogos/7.png,387, ,048112553,א,6:30,22:00,ב,6:30,22:00,ג,6:30,22:00,ד,6:30,22:00,ה,6:30,22:00,ו,6:30,15:30,,,,חיפה,7,שופרסל אקספרס,ביהח רמבם,,,,,,,,,,,,,,,,,,,,,
32.7672571,35.0131744,אקספרס סביוני דניה,/umbracoContent/Images/Branches/NetworkLogos/7.png,388,תומר מימון,048848780,א,7:00,21:00,ב,7:00,21:00,ג,7:00,21:00,ד,7:00,21:00,ה,7:00,21:00,ו,6:45,15:30,,,,חיפה,7,שופרסל אקספרס,7 חיים הזז,,,,,,,,,,,,,,,,,,,,,
32.335832,35.012677,שלי בת חפר,/umbracoContent/Images/Branches/NetworkLogos/1.png,389,עדי עזורי,097618898,א,6:30,21:00,ב,6:30,21:00,ג,6:30,21:00,ד,6:30,21:00,ה,6:30,21:00,ו,6:30,14:30,,,,בת חפר,1,שופרסל שלי,שד' עמק חפר מרכז,/umbracoContent/Images/Branches/DepartmentsLogos/1.png,,,מכבדים תווי קניה,,,,,,,,,,,,,,,,,
32.0987619,34.8808694,"אקספרס פ""ת מרכז רום",/umbracoContent/Images/Branches/NetworkLogos/7.png,390,רמי רחמים דבי,036539577,א,7:00,21:00,ב,7:00,21:00,ג,7:00,21:00,ד,7:00,21:00,ה,7:00,21:00,ו,7:00,15:30,,,,פתח תקווה,7,שופרסל אקספרס,8 יעל רום,,,,,,,,,,,,,,,,,,,,,
32.0532758,34.8043971,אקספרס אלנקווה,/umbracoContent/Images/Branches/NetworkLogos/7.png,391,עידן גמזו,03-7790997,א,6:30,22:00,ב,6:30,22:00,ג,6:30,22:00,ד,6:30,22:00,ה,6:30,22:00,ו,6:30,15:30,ש,18:45,22:00,תל אביב,7,שופרסל אקספרס,78 הרב אל נקווה,,,,,,,,,,,,,,,,,,,,,
31.364014,34.814537,אקספרס להבים,/umbracoContent/Images/Branches/NetworkLogos/8.png,393,מוטי טובי,086522218,א,6:30,20:30,ב,6:30,20:30,ג,6:30,20:30,ד,6:30,20:30,ה,6:30,20:30,ו,6:30,15:30,,,,להבים,8,גרין,1 השעורה,,,,,,,,,,,,,,,,,,,,,
32.176359,34.917834,אקספרס הכרמל כפר סבא,/umbracoContent/Images/Branches/NetworkLogos/7.png,394,ליאור מוסקוביץ,098618664,א,7:00,20:30,ב,7:00,20:30,ג,7:00,20:30,ד,7:00,20:30,ה,7:00,20:30,ו,7:00,15:30,,,,כפר סבא,7,שופרסל אקספרס,33-31 הגליל,,,,,,,,,,,,,,,,,,,,,
31.8966667,34.8119109,אקס רחובות לוין אפשטיין,/umbracoContent/Images/Branches/NetworkLogos/7.png,395,רון אלקיים,086288246,א,7:00,20:30,ב,7:00,20:30,ג,7:00,20:30,ד,7:00,20:30,ה,7:00,20:30,ו,6:30,15:30,,,,רחובות,7,שופרסל אקספרס,16 לוין אפשטיין,,,,,,,,,,,,,,,,,,,,,
32.61431,35.310123,אקספרס עפולה פארק,/umbracoContent/Images/Branches/NetworkLogos/7.png,397,מיקי מנשה,04-6139093,א,6:30,21:00,ב,6:30,21:00,ג,6:30,21:00,ד,6:30,21:00,ה,6:30,21:00,ו,6:30,15:30,,,,עפולה,7,שופרסל אקספרס,24   רובע יזרעאל,,,,,,,,,,,,,,,,,,,,,
32.924802,35.08177,דיל עכו,/umbracoContent/Images/Branches/NetworkLogos/2.png,399, ,04-8802501,א,8:00,21:00,ב,8:00,21:00,ג,8:00,21:00,ד,8:00,22:00,ה,8:00,22:00,ו,7:00,14:30,,,,עכו,2,שופרסל דיל,67 רמז בן-עמי,,,,,,,,,,,,,,,,,,,,,
32.084734,34.966714,אקספרס ראש העין שבזי,/umbracoContent/Images/Branches/NetworkLogos/7.png,400,אלדר כהן,035755273,א,6:30,20:30,ב,6:30,20:30,ג,6:30,20:30,ד,6:30,20:30,ה,6:30,20:30,ו,6:30,15:30,,,,ראש העין,7,שופרסל אקספרס,187 שלום שבזי,,,,,,,,,,,,,,,,,,,,,
32.151371,34.841658,גרין הרצליה- הנגב,/umbracoContent/Images/Branches/NetworkLogos/8.png,438,איל עזרא,09-9563338,א,8:00,18:00,ב,8:00,18:00,ג,8:00,18:00,ד,8:00,18:00,ה,8:00,18:00,ו,8:00,14:15,,,,הרצליה,8,גרין,2 צמרות,,,,,,,,,,,,,,,,,,,,,
32.0995369,34.8907717,"דיל אקסטרה פ""ת- סגולה",/umbracoContent/Images/Branches/NetworkLogos/4.gif,269,רום הרניק,03-9128000,א,9:00,22:00,ב,9:00,22:00,ג,9:00,22:00,ד,9:00,23:00,ה,9:00,24:00,ו,8:00,14:30,ש,18:45,22:00,פתח תקווה,4,שופרסל דיל אקסטרה,הרב מסעוד אשר20א,,,,,,,,,,,,,,,,,,,,,
32.677714,35.241813,דיל מגדל העמק- המדע,/umbracoContent/Images/Branches/NetworkLogos/2.png,281,אברהם זוהר,04-6440390,א,7:00,21:00,ב,7:00,21:00,ג,7:00,21:00,ד,7:00,21:00,ה,7:00,21:00,ו,7:00,14:30,,,,מגדל העמק,2,שופרסל דיל,77 שד' מדע,,,,,,,,,,,,,,,,,,,,,
31.892041,34.789416,"דיל אמט""ל רחובות",/umbracoContent/Images/Branches/NetworkLogos/2.png,276,ניסים פרץ,08-9487800,א,9:00,22:00,ב,9:00,22:00,ג,9:00,22:00,ד,9:00,23:00,ה,9:00,24:00,ו,8:00,14:30,ש,18:45,22:00,רחובות,2,שופרסל דיל,46  רח משה יתום,,,,,,,,,,,,,,,,,,,,,
33.005955,35.09546,שלי נהריה- הגעתון,/umbracoContent/Images/Branches/NetworkLogos/1.png,326,סבטלנה חודק נפטיק,04-9927211,א,7:00,20:00,ב,7:00,20:00,ג,7:00,20:00,ד,7:00,20:00,ה,7:00,21:00,ו,7:00,14:30,,,,נהריה,1,שופרסל שלי,67 הרצל,,,,,,,,,,,,,,,,,,,,,
32.780022,34.985314,אקספרס חיפה- ראול ולנברג,/umbracoContent/Images/Branches/NetworkLogos/7.png,327,איציק פינטו,04-8289129,א,7:00,21:00,ב,7:00,21:00,ג,7:00,21:00,ד,7:00,21:00,ה,7:00,21:00,ו,7:00,15:30,,,,חיפה,7,שופרסל אקספרס,9 ראול וולנברג,,,,,,,,,,,,,,,,,,,,,
32.795722,35.009431,שלי חיפה- נתיב חן,/umbracoContent/Images/Branches/NetworkLogos/1.png,330,יבגני גרשבורג,04-8224147,א,7:00,20:00,ב,7:00,20:00,ג,7:00,20:00,ד,7:00,20:00,ה,7:00,20:00,ו,7:00,14:00,,,,חיפה,1,שופרסל שלי,"נתיב חן 1,נוה שא",,,,,,,,,,,,,,,,,,,,,
32.0974983,34.79875,"אקספרס ת""א- תוספתא",/umbracoContent/Images/Branches/NetworkLogos/7.png,331,חיים מזרחי,03-6043545,א,6:30,20:30,ב,6:30,20:30,ג,6:30,20:30,ד,6:30,20:30,ה,6:30,20:30,ו,6:30,15:30,,,,תל אביב,7,שופרסל אקספרס,15 תוספתא,,,,,,,,,,,,,,,,,,,,,
32.7844231,34.996598,שלי חיפה- אורן,/umbracoContent/Images/Branches/NetworkLogos/1.png,333,דורון מזרחי,04-8343480/331,א,7:00,20:00,ב,7:00,20:00,ג,7:00,20:00,ד,7:00,20:00,ה,7:00,21:00,ו,7:00,14:30,,,,חיפה,1,שופרסל שלי,אורן 25 רוממה,,,,,,,,,,,,,,,,,,,,,
32.0802391,34.887189,"אקספרס פ""ת - שפירא",/umbracoContent/Images/Branches/NetworkLogos/7.png,334,עדי אייל,035526424,א,6:30,21:00,ב,6:30,21:00,ג,6:30,21:00,ד,6:30,21:00,ה,6:30,21:00,ו,6:30,15:30,,,,פתח תקווה,7,שופרסל אקספרס,"35 קק""ל",,,,,,,,,,,,,,,,,,,,,
32.1725996,34.9074294,"אקספרס כ""ס- בן גוריון",/umbracoContent/Images/Branches/NetworkLogos/7.png,335,בכור חי קייקוב,09-7658108,א,7:00,21:00,ב,7:00,21:00,ג,7:00,21:00,ד,7:00,21:00,ה,7:00,21:00,ו,6:30,15:30,,,,כפר סבא,7,שופרסל אקספרס,35 בן גוריון,,,,,,,,,,,,,,,,,,,,,
32.784941,35.004265,שלי חיפה- רמות ספיר,/umbracoContent/Images/Branches/NetworkLogos/1.png,336,עדיאל טיקטינסקי,04-8238548/50,א,7:00,20:00,ב,7:00,20:00,ג,7:00,20:00,ד,7:00,21:00,ה,7:00,21:00,ו,7:00,14:30,,,,חיפה,1,שופרסל שלי,48 רח' גוט לוין,,,,,,,,,,,,,,,,,,,,,
32.1010528,34.7834992,אקספרס כוכב הצפון,/umbracoContent/Images/Branches/NetworkLogos/7.png,338,יורם בר,03-6998839,א,6:30,21:00,ב,6:30,21:00,ג,6:30,21:00,ד,6:30,21:00,ה,6:30,21:00,ו,6:30,15:30,,,,תל אביב,7,שופרסל אקספרס,9 בוני העיר,,,,,,,,,,,,,,,,,,,,,
32.7880925,35.5355213,דיל טבריה- העמקים,/umbracoContent/Images/Branches/NetworkLogos/2.png,339,שגית משה ברנדזל,04-6791891,א,8:00,22:00,ב,8:00,22:00,ג,8:00,22:00,ד,8:00,23:00,ה,8:00,23:00,ו,7:00,14:00,ש,18:45,22:00,טבריה,2,שופרסל דיל,1 העמקים,/umbracoContent/Images/Branches/DepartmentsLogos/4.png,גרין,,,,,,,,,,,,,,,,,,,
32.1145976,34.7912823,"אקספרס ת""א- זריצקי",/umbracoContent/Images/Branches/NetworkLogos/7.png,340,חזי מזרחי,03-7411112,א,6:30,21:00,ב,6:30,21:00,ג,6:30,21:00,ד,6:30,21:00,ה,6:30,21:00,ו,6:30,15:30,,,,תל אביב,7,שופרסל אקספרס,4 זריצקי,,,,,,,,,,,,,,,,,,,,,
32.0785126,34.825305,"אקספרס רמת גן- הרוא""ה",/umbracoContent/Images/Branches/NetworkLogos/7.png,341,כפיר שי,03-6181333,א,6:30,22:00,ב,6:30,22:00,ג,6:30,22:00,ד,6:30,22:00,ה,6:30,22:00,ו,6:00,15:30,ש,18:45,23:00,רמת גן,7,שופרסל אקספרס,"131 הרוא""ה",,,,,,,,,,,,,,,,,,,,,
32.622893,35.315573,דיל כרמיאל- קניון לב,/umbracoContent/Images/Branches/NetworkLogos/2.png,342,אליהו מזרחי,04-9583890,א,8:00,21:00,ב,8:00,21:00,ג,8:00,21:00,ד,8:00,21:00,ה,8:00,21:00,ו,7:00,14:30,,,,כרמיאל,2,שופרסל דיל,100 מורד הגיא,,,,,,,,,,,,,,,,,,,,,
32.0936291,34.9724285,שלי ראש העין- ברקן,/umbracoContent/Images/Branches/NetworkLogos/1.png,343,רזיאל בקשייב,03-9011185,א,7:00,21:00,ב,7:00,21:00,ג,7:00,21:00,ד,7:00,21:00,ה,7:00,21:00,ו,7:00,14:30,,,,ראש העין,1,שופרסל שלי,1 ברקן,,,,,,,,,,,,,,,,,,,,,
33.0192556,35.2830142,דיל מעלות- דרך האלוף עוז,/umbracoContent/Images/Branches/NetworkLogos/2.png,344,סברי גנאמי,04-9572994,א,8:00,21:00,ב,8:00,21:00,ג,8:00,21:00,ד,8:00,22:00,ה,8:00,22:00,ו,7:00,14:30,,,,מעלות,2,שופרסל דיל,קניון כוכב הצפון,/umbracoContent/Images/Branches/DepartmentsLogos/4.png,גרין,,,,,,,,,,,,,,,,,,,
32.056456,34.865459,גרין קרית אונו-ירמיהו,/umbracoContent/Images/Branches/NetworkLogos/8.png,346,פיני לאון,03-6354544,א,9:00,20:00,ב,9:00,20:00,ג,9:00,20:00,ד,9:00,20:00,ה,9:00,20:00,ו,9:00,14:15,,,,קריית אונו,8,גרין,25 ירמיהו,,,,,,,,,,,,,,,,,,,,,
31.810459,34.7850238,אקספרס גדרה- דרך הפרחים,/umbracoContent/Images/Branches/NetworkLogos/7.png,347,נועם פרישמן,08-6467866,א,6:30,21:30,ב,6:30,21:30,ג,6:30,21:30,ד,6:30,21:30,ה,6:30,21:30,ו,6:30,15:30,,,,גדרה,7,שופרסל אקספרס,38 דרך הפרחים,,,,,,,,,,,,,,,,,,,,,
32.0843103,35.0843103,"אקספרס פ""ת- קק""ל",/umbracoContent/Images/Branches/NetworkLogos/7.png,348,מורן בניסטי,03-5404681,א,6:30,21:00,ב,6:30,21:00,ג,6:30,21:00,ד,6:30,21:00,ה,6:30,21:00,ו,6:30,15:30,ש,18:45,22:00,פתח תקווה,7,שופרסל אקספרס,"2 קק""ל",,,,,,,,,,,,,,,,,,,,,
32.970987,35.504212,יש חסד צפת- כנען,/umbracoContent/Images/Branches/NetworkLogos/6.png,349,שי שלום לוי,04-6925441-2,א,7:30,21:00,ב,7:30,21:00,ג,7:30,21:00,ד,7:30,22:00,ה,7:30,22:00,ו,7:00,15:00,ש,21:00,23:00,צפת,6,יש,הגדוד השלישי,,,,,,,,,,,,,,,,,,,,,
31.993331,34.944783,שלי שוהם- תרשיש,/umbracoContent/Images/Branches/NetworkLogos/1.png,369,ישראל גרון,03-9712230,א,7:00,20:30,ב,7:00,20:30,ג,7:00,20:30,ד,7:00,20:30,ה,7:00,21:00,ו,7:00,14:30,,,,שוהם,1,שופרסל שלי,1 תרשיש,,,,,,,,,,,,,,,,,,,,,
32.8160629,35.0534201,דיל אדמירליטי חיפה- איטי,/umbracoContent/Images/Branches/NetworkLogos/2.png,258,ניסים יונה,04-8491748,א,8:30,22:00,ב,8:30,22:00,ג,8:30,22:00,ד,8:30,23:00,ה,8:30,23:00,ו,7:00,14:30,,,,חיפה,2,שופרסל דיל,4 יהודה איתין,,,,,,,,,,,,,,,,,,,,,
31.750423,35.208121,דיל ירושלים-קניון תלפיות,/umbracoContent/Images/Branches/NetworkLogos/2.png,260,מרדכי ניסים,02-6791107,א,8:30,22:00,ב,8:30,22:00,ג,8:30,22:00,ד,8:30,23:00,ה,8:30,24:00,ו,7:30,14:30,ש,18:45,23:00,ירושלים,2,שופרסל דיל,17 האומן,,,,,,,,,,,,,,,,,,,,,
32.0841262,34.8954321,"אקספרס פ""ת רחל המשוררת",/umbracoContent/Images/Branches/NetworkLogos/7.png,296,סטלה דוידוב,03-5189337,א,6:30,21:00,ב,6:30,21:00,ג,6:30,21:00,ד,6:30,21:00,ה,6:30,21:00,ו,6:30,15:30,,,,פתח תקווה,7,שופרסל אקספרס,29 רחל המשוררת,,,,,,,,,,,,,,,,,,,,,
32.435181,34.9069223,דיל חדרה- ארבע האגודות,/umbracoContent/Images/Branches/NetworkLogos/2.png,297,יניב עומר,04-6249051,א,8:00,22:00,ב,8:00,22:00,ג,8:00,22:00,ד,8:00,23:00,ה,8:00,23:00,ו,7:00,14:30,ש,18:45,22:00,חדרה,2,שופרסל דיל,1 יהודי פקיעין,,,,,,,,,,,,,,,,,,,,,
32.160094,34.904959,אקספרס הוד השרון,/umbracoContent/Images/Branches/NetworkLogos/7.png,299,שי מויאל,09-7720559,א,6:30,22:00,ב,6:30,22:00,ג,6:30,22:00,ד,6:30,22:00,ה,6:30,22:00,ו,6:30,15:30,ש,18:45,22:00,הוד השרון,7,שופרסל אקספרס,12 חנקין,,,,,,,,,,,,,,,,,,,,,
31.861188,34.817111,"דיל קרית עקרון- ביל""ו",/umbracoContent/Images/Branches/NetworkLogos/2.png,283,דרור ממן יצחק,08-9449400,א,8:00,22:00,ב,8:00,22:00,ג,8:00,22:00,ד,8:00,23:00,ה,8:00,24:00,ו,7:30,14:30,ש,18:45,22:00,קרית עקרון,2,שופרסל דיל,בילו סנטר,,,,,,,,,,,,,,,,,,,,,
32.495162,35.496458,דיל בית שאן-ירושלים הביר,/umbracoContent/Images/Branches/NetworkLogos/2.png,215,זינאידה מוגילני,04-6581378,א,8:00,21:00,ב,8:00,21:00,ג,8:00,21:00,ד,8:00,22:00,ה,8:00,22:00,ו,7:00,14:30,,,,בית שאן,2,שופרסל דיל,ירושלים1פינת שחם,,,,,,,,,,,,,,,,,,,,,
31.725404,34.748189,דיל באר טוביה,/umbracoContent/Images/Branches/NetworkLogos/2.png,261,אליהו שמיאן,08-8601119,א,8:00,21:00,ב,8:00,21:00,ג,8:00,21:00,ד,8:00,21:00,ה,8:00,22:00,ו,7:00,14:30,,,,באר טוביה,2,שופרסל דיל,"ניר 1 אזה""ת",,,,,,,,,,,,,,,,,,,,,
31.849673,34.839855,שלי מזכרת בתיה- בגין,/umbracoContent/Images/Branches/NetworkLogos/1.png,262,שמעון טורג'מן,086483766,א,7:00,21:00,ב,7:00,21:00,ג,7:00,21:00,ד,7:00,21:00,ה,7:00,21:00,ו,7:00,14:30,,,,מזכרת בתיה,1,שופרסל שלי,2 שד' מנחם בגין,,,,,,,,,,,,,,,,,,,,,
32.0203065,34.7679311,אקספרס חולון - זלמן ארן,/umbracoContent/Images/Branches/NetworkLogos/7.png,265,אריאל דוידוב,03-5095299,א,7:00,20:30,ב,7:00,20:30,ג,7:00,20:30,ד,7:00,20:30,ה,7:00,20:30,ו,7:00,15:00,,,,חולון,7,שופרסל אקספרס,1 זלמן ארן,,,,,,,,,,,,,,,,,,,,,
32.073748,34.807552,שלי גבעתיים- ויצמן,/umbracoContent/Images/Branches/NetworkLogos/1.png,272,אולגה גילמן,03-5719539,א,7:00,22:00,ב,7:00,22:00,ג,7:00,22:00,ד,7:00,22:00,ה,7:00,23:00,ו,7:00,14:30,ש,18:45,23:00,גבעתיים,1,שופרסל שלי,20 ויצמן,,,,,,,,,,,,,,,,,,,,,
32.0562855,34.7697528,"אקספרס ת""א- פלורנטין",/umbracoContent/Images/Branches/NetworkLogos/7.png,274, ,03-6319489,א,6:30,22:30,ב,6:30,22:30,ג,6:30,22:30,ד,6:30,22:30,ה,6:30,22:30,ו,6:30,15:30,ש,18:45,22:30,תל אביב,7,שופרסל אקספרס,27 פלורנטין,,,,,,,,,,,,,,,,,,,,,
32.1721608,34.8407349,אקספרס.בני בנימין הרצליה,/umbracoContent/Images/Branches/NetworkLogos/7.png,277,דוד מכבי,09-8655360,א,7:00,21:00,ב,7:00,21:00,ג,7:00,21:00,ד,7:00,21:00,ה,7:00,21:00,ו,7:00,15:30,,,,הרצליה,7,שופרסל אקספרס,23 בני בנימין,,,,,,,,,,,,,,,,,,,,,
31.9739491,34.8061696,"שלי פ""ת -העצמאות",/umbracoContent/Images/Branches/NetworkLogos/1.png,278,רויטל טואיטו,03-7367197,א,7:00,22:00,ב,7:00,22:00,ג,7:00,22:00,ד,7:00,22:00,ה,7:00,23:00,ו,7:00,14:30,ש,18:45,22:00,פתח תקווה,1,שופרסל שלי,65 העצמאות,,,,,,,,,,,,,,,,,,,,,
32.0769367,34.7714655,"אקספרס-ת""א דרויאנוב",/umbracoContent/Images/Branches/NetworkLogos/7.png,279,צביקה ליבוביץ,03-6048298,א,6:30,22:00,ב,6:30,22:00,ג,6:30,22:00,ד,6:30,22:00,ה,6:30,22:00,ו,6:30,15:30,ש,18:45,22:30,תל אביב,7,שופרסל אקספרס,5 רח' דרויאנוב,,,,,,,,,,,,,,,,,,,,,
31.7669888,35.1961546,דיל צומת גבעת מרדכי,/umbracoContent/Images/Branches/NetworkLogos/2.png,282,יוחאי בראשי,02-6424174,א,7:30,22:00,ב,7:30,22:00,ג,7:30,22:00,ד,7:30,23:00,ה,7:30,23:00,ו,7:00,14:30,ש,18:45,22:00,ירושלים,2,שופרסל דיל,שחל 79 צומת בייט,/umbracoContent/Images/Branches/DepartmentsLogos/4.png,גרין,,,,,,,,,,,,,,,,,,,
31.9739491,34.8061696,שלי תל מונד- הדקל,/umbracoContent/Images/Branches/NetworkLogos/1.png,284,עופר גפן,09-7734614,א,7:00,20:00,ב,7:00,20:00,ג,7:00,20:00,ד,7:00,21:00,ה,7:00,21:00,ו,7:00,14:30,,,,תל מונד,1,שופרסל שלי,49 הדקל,,,,,,,,,,,,,,,,,,,,,
32.091258,34.8932,"אקספרס סוקולוב פ""ת",/umbracoContent/Images/Branches/NetworkLogos/7.png,285,גל כהן,035162033,א,6:30,21:00,ב,6:30,21:00,ג,6:30,21:00,ד,6:30,21:00,ה,6:30,21:00,ו,6:30,15:30,,,,פתח תקווה,7,שופרסל אקספרס,27 סוקולוב,,,,,,,,,,,,,,,,,,,,,
32.061923,34.8037383,שלי גבעתיים-שביט,/umbracoContent/Images/Branches/NetworkLogos/1.png,287,רוני כהן,03-5092400,א,7:00,21:00,ב,7:00,21:00,ג,7:00,21:00,ד,7:00,21:00,ה,7:00,21:00,ו,7:00,14:30,,,,גבעתיים,1,שופרסל שלי,45 עמישב,,,,,,,,,,,,,,,,,,,,,
31.893013,34.8208,יש רחובות- סירני,/umbracoContent/Images/Branches/NetworkLogos/6.png,288,יצחק מאיר שטול,08-6432265,א,7:30,22:00,ב,7:30,22:00,ג,7:30,22:00,ד,7:30,23:00,ה,7:30,23:00,ו,7:30,15:00,ש,21:00,23:00,רחובות,6,יש,1 חיים סרני,,,,,,,,,,,,,,,,,,,,,
32.8236314,35.0843103,אקספרס קרית ביאליק,/umbracoContent/Images/Branches/NetworkLogos/7.png,384,אלעד ממן,04-9536493,א,7:00,20:00,ב,7:00,20:00,ג,7:00,20:00,ד,7:00,20:00,ה,7:00,20:00,ו,6:00,15:30,,,,קרית ביאליק,7,שופרסל אקספרס,15 שדרות ירושלים,,,,,,,,,,,,,,,,,,,,,
